id,street_address,state,zip_code,country,country_code
01a429f8-f576-4d9b-8d0e-4d5e8ef37e09,8 Muir Center,Massachusetts,02119,United States,US
2bca6dfc-997c-4176-b187-93899775bafc,0548 Quincy Center,Colorado,80915,United States,US
8c94b728-9b9c-4a02-8c0f-155e715d2fcf,6767 South Hill,Montana,59806,United States,US
ba889f52-afb8-4651-b012-7464b4aa4b15,498 2nd Street,Oklahoma,74156,United States,US
b523f7f3-0338-4f1f-a951-a387beeb8b6a,6 Cascade Park,Tennessee,37245,United States,US
e2249330-c07a-4796-95c8-a90523ffe210,364 Graceland Lane,Virginia,23225,United States,US
b1949e13-2502-429d-b6ce-b5e60803d9d0,6594 Killdeer Junction,Nebraska,68524,United States,US
bbb7249e-b197-4440-935d-8e952743f465,78 Bluejay Street,California,92121,United States,US
da8e3b18-8e2b-43f5-86c1-2e5a84094be5,53523 Melrose Park,New York,10155,United States,US
ddbf0216-8700-4c13-a688-e40fa7f68a5c,30 Ramsey Way,West Virginia,25709,United States,US
cbd9a0e9-d427-44c0-a50c-4118f4c8da87,04 Fordem Avenue,Alabama,35285,United States,US
93b0afaf-6559-4501-8413-d02581393f8d,4800 Judy Avenue,California,94147,United States,US
530a2dc0-1905-4dbc-b321-fa76c3dd2f47,802 Claremont Center,Louisiana,70149,United States,US
940257a4-9ea0-4118-8e97-b1427f3afa59,88131 Sundown Crossing,Colorado,80126,United States,US
fd67d612-ad15-42f9-9402-e818689f764f,5 Forster Street,Illinois,61656,United States,US
2e028c7c-a0af-49ad-b115-140b96fca52c,69407 Drewry Park,Oregon,97286,United States,US
51a493f7-f244-4af7-bad7-1a38bd4b6368,59 Dovetail Lane,Mississippi,39236,United States,US
25ca3929-17c6-4839-a25f-454c150defd5,50709 Southridge Drive,Delaware,19805,United States,US
b1c9d426-bce8-4e7d-8b13-26059302d8b9,84 Lawn Street,California,94250,United States,US
e8e90ed7-0392-4474-9a3c-6bf231962e19,128 Briar Crest Trail,Connecticut,06726,United States,US
84f2e2e5-71ff-4eb3-916e-942af5358942,94347 Sullivan Junction,Florida,33615,United States,US
b1cf713e-ada0-4347-b7f4-423abe6fe00c,00 Cascade Pass,Florida,33028,United States,US
6cf374c9-c1ca-45d6-84e7-e89f21559432,3147 Bashford Lane,Florida,32610,United States,US
547a92bc-5a9d-4cde-870d-f77cf57d8213,16 Fuller Point,New Mexico,87140,United States,US
c11d69cf-3491-4a28-8d55-7d8814758bb2,52425 Pawling Hill,New York,11447,United States,US
36639892-56e8-4563-b563-c66a55d7098c,8150 Cottonwood Drive,California,90025,United States,US
7c538297-fdbf-4993-8ff2-82276f9f8142,82 Steensland Terrace,Tennessee,38126,United States,US
51665aa0-bd93-4ab7-89cf-2d51b31804c2,886 Russell Crossing,Nebraska,68144,United States,US
b93e6d46-3599-4a78-9020-78fcb91c8823,0 Brown Avenue,Texas,78410,United States,US
7bf6a378-cf22-4bee-89e4-b6bde0e874e2,39 Maywood Avenue,California,93150,United States,US
1cac25d9-dd39-4f6b-8435-49ac65edb5ce,9890 Raven Parkway,Texas,79415,United States,US
bc7b9754-898a-4c39-99ed-c96ed6bc8235,32386 Twin Pines Drive,New York,14609,United States,US
1f1d77d1-1a06-451b-8c00-0a47343c79bb,177 Schlimgen Street,California,94142,United States,US
3d15f569-c141-42d9-ad6e-33b611b02ace,384 Debra Circle,Massachusetts,02119,United States,US
fb7c1b91-3c6c-4c96-a9a3-7c2388b01c7a,546 Eggendart Parkway,Alabama,35487,United States,US
d92a7e42-9102-44c0-a0ca-52852cfb11b2,22518 Bluestem Way,Texas,76134,United States,US
764134ad-1416-4d4c-af44-4c55257a6d7b,2140 Jay Avenue,Missouri,64142,United States,US
c86a022a-fd91-4e97-8bc5-222591422594,69 Manufacturers Terrace,Alaska,99507,United States,US
2ecbf78d-67ce-4991-8ee0-b11c66640ed0,6809 Londonderry Crossing,California,92705,United States,US
60f05753-e616-4fba-bb9e-36d1a20f1472,69 Judy Hill,Louisiana,71213,United States,US
1eea3725-c058-495a-8a65-d5395dcbe804,3695 Schmedeman Lane,District of Columbia,20005,United States,US
f7a0f628-ea56-4cf6-b366-814c7e011707,557 Bayside Parkway,Virginia,23605,United States,US
52ce2240-3189-4f34-bde3-accc486cda82,87 Lyons Street,New York,10004,United States,US
6ee35a0f-1f09-4f93-9670-7f89b6dd71b3,328 Sherman Place,Maryland,21229,United States,US
a0df8303-3823-4689-82f4-5bc83afe99e0,6 Scofield Road,District of Columbia,20036,United States,US
04565e57-e4cc-455c-9b0d-34f242ba35ed,5205 Hanover Hill,Pennsylvania,19196,United States,US
5cfa0ec7-70dd-4634-b7d2-a92aec2f57a3,4 Prairieview Circle,California,90605,United States,US
05fda03e-611d-442e-9d46-f98ac047085e,38 Manley Crossing,California,93311,United States,US
d490a965-c3c7-4db4-b334-6b2ee3f9c6e9,46 Utah Point,Kansas,67230,United States,US
531a2be5-2343-4742-996d-3c5c5af3be27,09164 Susan Center,Utah,84403,United States,US
d8600030-fcbe-497c-81c8-b60a941b17d2,21 Hauk Junction,Georgia,30311,United States,US
17b126e2-d134-4b55-8ba2-9597f8e7b093,66 Fordem Trail,New Mexico,87121,United States,US
445cda56-fdff-48cc-9077-add79ef46a9f,292 Nelson Hill,Arizona,85305,United States,US
12bec8df-2ebf-482e-aaab-6976813e4ec2,51 Amoth Trail,Nevada,89145,United States,US
3e473d17-edeb-4d0e-9acf-c1441326d119,061 Bowman Pass,Wisconsin,53210,United States,US
c46070e9-62e7-43e5-a0b4-38aabb4aacd0,23 Morningstar Plaza,California,95823,United States,US
41a5979d-18e8-4069-adea-c9ed48bb3ed6,4 Burning Wood Point,Oklahoma,73157,United States,US
94f75c31-c1aa-4716-adbb-3fe44499b9e1,4 Glendale Lane,Massachusetts,02142,United States,US
84badc72-3daf-4b80-a8b9-2c6048084418,79 Northridge Way,Arizona,85062,United States,US
3e6f5854-24f4-422e-ad57-e95faab2653b,2561 Kropf Avenue,Ohio,45020,United States,US
7e54b4c2-0fc9-4e3f-a80f-916d55d64f50,81 Sugar Avenue,Florida,33661,United States,US
5fb8398d-268c-4f8f-bc1d-c9e74cbc73a5,70 Merchant Court,Indiana,46857,United States,US
b70cefaf-729a-46e8-b012-1bd6de55f188,89473 Jay Place,Georgia,30919,United States,US
381acffc-d912-4e1e-b191-31abc07b920f,2706 Welch Avenue,Virginia,23605,United States,US
08623004-6a9a-4dd2-9c75-64f61272c83a,94 Paget Terrace,Texas,76705,United States,US
d648722b-9777-4fe6-8939-2a9f16c2b99a,817 Waxwing Terrace,Nebraska,68531,United States,US
4bc8880f-ffe4-43a8-b364-b0e1248643f0,7531 Manley Point,Virginia,23454,United States,US
d308cf62-e965-4a95-900b-4ec53826b81f,786 Crowley Center,New York,10165,United States,US
5ba43d90-10f0-4f12-86fc-01e66a1fa155,25092 Karstens Terrace,Michigan,49518,United States,US
66d0909d-cab8-4925-86d2-1f39b797aa0f,56 Redwing Point,Massachusetts,02104,United States,US
aa17502d-df71-40e9-bc8e-664d4ddbc786,83429 Moulton Place,Illinois,60208,United States,US
81333c22-4e2f-4953-8d6b-c0c8151215c6,84 Hazelcrest Road,Nevada,89145,United States,US
aa2d6318-8469-458a-bd5d-12d4ea6d73f0,88848 Rusk Court,Kansas,67220,United States,US
e980d38e-68db-4034-9e0e-4b50f5347014,101 Gerald Terrace,Texas,75372,United States,US
621e8f16-703c-4a37-ba62-a9928adccc9d,2531 Dryden Center,District of Columbia,20566,United States,US
a8602711-84d1-4306-812a-f86c7e0ae70b,86 Jackson Terrace,Florida,34102,United States,US
60e6f066-63f8-45d8-a5c9-868e51afd6f9,08695 Gina Alley,Florida,33164,United States,US
2a8e69ce-ce2b-449f-b6cd-b5353c486baa,39 Blaine Plaza,Connecticut,06825,United States,US
85745fa5-f2d2-4a02-9011-f29473a991d6,882 Jackson Alley,Georgia,31132,United States,US
d4f44124-1e46-4405-87d3-7c9ead0fd358,19296 Veith Avenue,Illinois,60657,United States,US
eab4b0ae-12d2-4a06-b8a6-052b63b686c3,29 Sheridan Alley,Arizona,85015,United States,US
26bcb953-3522-43a3-ad5a-24e634d58c4c,4 Harper Hill,Florida,33625,United States,US
6528af49-bea5-4401-8ccf-b58efd48cbd1,14663 Trailsway Terrace,Kentucky,40220,United States,US
45abbe0e-ddff-4a37-90be-9995e1da02d6,13 Dakota Alley,Florida,32399,United States,US
3733672f-ebd9-4d1d-8998-f82cc96cdf77,402 Hooker Trail,Washington,99215,United States,US
5cf26c12-91b8-4df7-8584-aa16e73709d7,15439 Carberry Parkway,Alaska,99790,United States,US
1c1ffb17-6369-456b-ba01-8f865cd401d4,557 Waubesa Terrace,Iowa,51105,United States,US
8ab464f3-4399-458d-a8ef-47e3d41071c2,20 Kim Center,Ohio,44305,United States,US
8f404653-8002-4b64-9c9a-f49d58cc72e6,93691 Basil Trail,Colorado,81505,United States,US
f087846c-1821-4350-bfa4-ea477d3eb3b4,90 Mallard Street,Nevada,89436,United States,US
dda4674f-8456-4d2e-a31f-e57d792dd6ea,8 Dwight Junction,Georgia,31904,United States,US
f593cc6e-2993-4bb5-82e4-ad8359d99da8,73 Erie Plaza,Arizona,85305,United States,US
1639d91f-fe80-4c0b-8650-2b0ada3c820c,330 Monterey Park,Nevada,89193,United States,US
d9db55f5-61b1-4392-ab0f-ed0d9cfaa6eb,4953 Upham Court,Alabama,35215,United States,US
fa3164f0-87ae-4c0a-988e-ee8ce6577286,90 Dryden Hill,Minnesota,55172,United States,US
a34f9fff-750a-4101-bd4b-5944b44d1aa9,7 Hansons Park,Texas,79769,United States,US
2b601c0c-7edc-49d0-8973-800cc3e6b0ba,1 Fieldstone Circle,Tennessee,37131,United States,US
830a6eca-6655-4b89-9202-0a421ff0a774,9376 Bultman Hill,California,94522,United States,US
d201bf6b-7565-4b12-95b4-28010f403358,75411 Dakota Point,Oklahoma,73147,United States,US
73abd6cb-4c51-48ce-8dcc-489b70b7d528,5 Forster Trail,California,92717,United States,US
8adacb0b-01e6-4aa4-998a-2052014dbde1,43 Prairieview Pass,Florida,34745,United States,US
7463f793-f6c7-40cb-818f-e94a968de06b,79 Hermina Place,Minnesota,55573,United States,US
0982dd3e-eb17-428c-adc6-7df312e33824,464 Southridge Circle,Ohio,44710,United States,US
f3e3b805-4c8a-4307-9f4f-1bf5335c94b1,2629 Golf Course Pass,California,94257,United States,US
01711061-a5df-4dc5-9abb-71bada250ddc,52 Lien Court,California,93407,United States,US
6de2bcdc-1533-4f28-adac-546a90f4a8c6,37118 Mitchell Center,North Carolina,27110,United States,US
bdc0a0c7-ef9d-4ffa-837f-c8eac201012d,9704 Debra Drive,Tennessee,37914,United States,US
7dddd189-2ffe-4e3f-9450-e422e3db9d65,6 Lerdahl Center,Louisiana,70826,United States,US
f88fdd10-ef3d-460a-a7fd-5dcc87571be6,34353 Pearson Terrace,New York,11044,United States,US
2918648e-87e2-42ea-864b-2567bef8d2a7,6 Northview Way,Arizona,85705,United States,US
52b5f0d6-cd3b-4471-b34e-8bfe004c6434,14916 Bultman Drive,Texas,77255,United States,US
2cf81227-bb15-4eca-91f8-f5943c7d59c5,754 Hudson Drive,Florida,33134,United States,US
ef763510-acf3-4162-a1a0-e209d6ce4828,699 Fordem Street,Oklahoma,74170,United States,US
cdb6ddbe-83ab-4d56-b799-a3037461a197,4662 Village Green Trail,California,92883,United States,US
0b8a2f96-6625-4f2e-a21b-bece233fc377,14226 Tennessee Court,California,94042,United States,US
54c0f6e3-75bc-4586-adf2-b5f04dce10b7,039 Mitchell Plaza,Pennsylvania,15286,United States,US
be2b8f84-42eb-4f87-865f-244a22a3f126,32943 Oak Way,Florida,33345,United States,US
778e90eb-8256-4a6f-a5ad-13ab3682efd3,2 Esch Circle,Oklahoma,73129,United States,US
942be685-004d-4e2b-a78d-70076dc0fcc3,9 Del Mar Drive,Alabama,36104,United States,US
111746ce-90c2-4b33-a260-4f755779f23d,61 Brentwood Court,Missouri,64130,United States,US
bd014615-5901-45e4-b1f7-913ff5d24761,55777 Autumn Leaf Trail,Oklahoma,73109,United States,US
2e3712e6-60b7-4234-bb52-73a1c63048c0,1 Elka Park,Kentucky,40546,United States,US
f795fa6b-80b7-444b-9637-251970d44c3c,26 Victoria Park,Illinois,61825,United States,US
e481f5c6-adea-468f-92e2-61b5d0a1e8b7,71082 Oakridge Lane,California,90076,United States,US
0aaf917a-ae60-4c98-9608-9d574ecd8118,49 Old Shore Street,Texas,79116,United States,US
12a89778-19c0-4a44-98fc-12cdaffdb00c,50609 Old Shore Point,New York,10203,United States,US
cb6799b5-afdf-4e73-be58-6fa328babcc9,3482 Chive Point,Nevada,89160,United States,US
f866005f-c5db-4df3-93f3-e5bb8f1488ad,2 Shasta Way,California,92105,United States,US
ef5a22ad-3f5c-41d7-9040-5e5169a1fe66,4357 Dunning Trail,Alabama,36616,United States,US
d58aa309-0094-4464-a3f5-0f1ca41b6c24,5222 Ridge Oak Point,Louisiana,70165,United States,US
a1e468c0-1934-4511-9fcd-bf7858c81c20,3386 Coolidge Point,Florida,33069,United States,US
bc026719-358d-4dfc-9c6a-76f9efdf4256,35926 Lotheville Avenue,Ohio,45440,United States,US
79a96e92-5f08-4b3c-9852-5c1662542ddf,009 Chinook Alley,Iowa,52809,United States,US
a21d0cbd-0934-4442-a273-a3bf3103bd10,5 Karstens Street,Louisiana,70505,United States,US
03b08508-50c2-4bba-b5e6-515f9ec32fb5,6195 Northridge Junction,Texas,77065,United States,US
2660f6ae-9125-4054-8561-95b7095a435e,9202 Bluestem Road,California,90810,United States,US
dff5bc5e-679f-44d5-8a2c-6c072fc2d33a,0 Morningstar Road,California,93750,United States,US
8b2c5985-804c-432e-9003-b2ccf17f547c,59 Kenwood Circle,Texas,76305,United States,US
288b929b-6b7f-43e2-bd2a-307f332d87df,0 Almo Plaza,Texas,78260,United States,US
5b297cff-228b-4ac0-9287-77718657c1a7,067 Cody Way,Utah,84605,United States,US
79ac7f11-df3d-47e9-ba1d-389a40b0d140,3 Valley Edge Trail,Minnesota,55402,United States,US
defb3345-f536-406e-951a-ef18a87182e5,8 Ridgeway Street,New York,14905,United States,US
90cf118c-2ba5-4372-bfeb-ad82896a47e0,31629 Vidon Pass,Alabama,36114,United States,US
879479ec-186c-4d42-baed-d767c32ebdcc,6 Eliot Road,Colorado,80262,United States,US
13b06bee-306b-4476-9796-4c9ef2423bd7,336 Pepper Wood Drive,New York,11355,United States,US
db9b7006-5ab5-4a89-9443-26a6b1639ade,2678 Service Center,Texas,77095,United States,US
5a91a37a-3015-47be-b5a2-9f88e0e2d020,61 Bobwhite Way,Indiana,46620,United States,US
b2aa9f1f-65a7-45d2-b6af-c84f881a3d01,0215 Shopko Lane,Kentucky,40515,United States,US
1f338bd3-da9c-4caf-9abf-02752f61cbf8,93684 Manley Street,Texas,78426,United States,US
0b5b416f-ef37-4e54-924f-e605ddb78ad2,34 Gale Way,Connecticut,06854,United States,US
d003a899-e40a-46e9-8519-9f321e2d7204,82 Karstens Junction,Minnesota,55123,United States,US
45e3e60c-9e0e-4d1b-8329-56c59573070f,70 Carberry Avenue,Florida,32511,United States,US
6a2b849c-6511-4714-9dee-8a7b28ce3a14,5952 Cardinal Court,Texas,78769,United States,US
81c07143-e44f-4007-aea0-68ef68220850,44 Steensland Hill,Florida,34114,United States,US
1fc7c380-2110-41ef-a06e-c008480a7618,65 Lunder Hill,Ohio,44185,United States,US
a51fd759-4d43-48b0-b929-b38ef0399051,759 Kennedy Alley,New York,11236,United States,US
29c609b2-075a-40c5-9902-0b13bb1cb11a,413 Johnson Pass,Maryland,21282,United States,US
2c70df34-bf2c-447e-a255-042fe26ce743,8334 Thackeray Place,Alabama,35815,United States,US
9473fd80-3c09-4768-a471-3818a404bb08,7 Crownhardt Street,Florida,32092,United States,US
b9be3390-ec47-4398-912c-c1b20187eade,01475 Cascade Lane,South Carolina,29905,United States,US
c81d29bf-76fc-4145-9023-39f800124895,9589 Paget Parkway,California,93721,United States,US
5531a38c-9686-42fd-900a-e5f5050c97bd,4901 Gina Lane,Indiana,47732,United States,US
21d44670-5dae-4753-85ca-0854e70efd85,5794 Pepper Wood Circle,Colorado,80204,United States,US
16228c86-bb58-4cf6-b5d5-e64086f55a06,6195 Clove Center,Texas,79410,United States,US
67122a39-a8b8-4542-91f8-9c6c6bacad25,229 Fairfield Crossing,California,90035,United States,US
20e611b1-cc6a-4b2f-afcb-2e2d158f51ed,99528 Ruskin Junction,Texas,77055,United States,US
716094bd-8fc3-4e55-88c5-c36298da9a65,785 7th Crossing,Texas,76110,United States,US
e79af7b2-8e3d-45b3-85cc-7eca9eba88cf,7 Fairfield Park,Montana,59623,United States,US
cd342849-630c-44d4-aa27-45f8871b88f1,0414 Acker Street,California,92115,United States,US
9ded1017-8988-40cc-b2fc-d31c7423eac2,2 Schlimgen Center,Maryland,21684,United States,US
ce4cd057-dc49-40a8-8ffd-020fd56b4d12,4 Buell Alley,Virginia,24034,United States,US
cdaa75a3-3c2b-4702-8a19-e1b34e21fca2,851 Killdeer Parkway,Virginia,24029,United States,US
2c33ac67-4237-4cfb-94fb-2423384c6b2d,4 Menomonie Circle,Texas,78710,United States,US
b35db109-44c8-4434-b0c6-c629dd856aad,4461 Schmedeman Terrace,Texas,88553,United States,US
f13acef9-1de3-4541-9d5b-915d0e4d517f,9 Fair Oaks Circle,New York,10469,United States,US
d4119209-3211-4739-85e2-34db7549b002,61 Canary Plaza,Hawaii,96825,United States,US
1bf6fec0-a8c3-43a9-972f-fa73c0702451,904 Bonner Road,Illinois,60193,United States,US
2e309c46-80ec-4297-8e9f-29ea9aa1d080,60 Morrow Plaza,Washington,98206,United States,US
d44fa65e-b6a1-4148-9fa3-0c828ce632bc,05 Ilene Street,West Virginia,25331,United States,US
391d8b91-9e5a-4a01-8fe4-6bd7b344fd57,539 Bultman Avenue,Florida,33805,United States,US
585ad566-1cff-4708-bd7d-6aa65a774a3b,0615 Bunting Center,Texas,77005,United States,US
2c7fb37b-b2a1-48a3-a346-c9ef193ff3e6,660 Manley Trail,Texas,78789,United States,US
31abac0e-c8c8-43b0-9237-39a2e4b60b34,74283 Hoffman Junction,Washington,98498,United States,US
8e78f01f-0425-4d99-ab2d-da86917ad084,13897 Holy Cross Terrace,California,91328,United States,US
34f779f0-eed6-452a-b510-81037e5c3acd,91594 Barnett Trail,Texas,78759,United States,US
eed82e84-4776-4d3e-83e2-4f90b9ea61e2,28457 Pankratz Drive,Indiana,47937,United States,US
ab777947-8d0d-438c-b62e-f72b5996c864,96 Larry Junction,West Virginia,25770,United States,US
5ff9dfe5-03e3-4604-a1e0-bfa6d7146c8b,8193 Saint Paul Parkway,California,94159,United States,US
f9f087da-1638-49d5-ada8-990a93906d62,29558 Hayes Center,Texas,78240,United States,US
10a68864-a017-4517-ae7f-a601d540018a,171 Southridge Way,Washington,99210,United States,US
62d096ba-bf85-4d9f-81a6-bb83dd7c475f,00242 Village Trail,Florida,32405,United States,US
f03097f9-0d61-4c33-95b4-b3a3eb531a3f,60889 Carey Hill,Pennsylvania,15210,United States,US
4fb82743-6979-4dfe-a75a-f49f536c0f87,761 Northland Lane,Texas,78749,United States,US
1bef1032-ca15-4100-b0b4-c7b748f436d8,47 Nova Way,Oregon,97312,United States,US
0d0d080c-1cb0-4065-b969-561dfea6c8a3,8084 Johnson Parkway,Texas,78759,United States,US
1942e118-5c69-4845-a7d5-88f2eac003b4,9109 Dixon Alley,Texas,75044,United States,US
6669d0f3-a620-4f3c-9df9-4d4ffb516acd,3 Moose Point,California,95823,United States,US
de578fa5-5a02-4d97-bf0d-5f29147751b3,34 Canary Terrace,Mississippi,39216,United States,US
9eea8b0a-f496-41a8-b1d7-e9af32c49c6a,2 Golden Leaf Road,Virginia,23454,United States,US
b330d947-80f2-477b-a148-956eff4f7757,48 Reindahl Plaza,Maryland,21282,United States,US
d3beed5b-5bb6-45f7-96aa-d16b86aa8731,5136 Holmberg Point,Texas,79977,United States,US
93aeac33-73ad-47b1-9567-9f9648c758c4,8 Stoughton Hill,Ohio,45238,United States,US
91059bb6-e105-4842-b236-d7b1ce441414,1157 Bellgrove Crossing,Georgia,30245,United States,US
47c10d82-31dd-4e1b-9121-a1d1e20ee16f,11 Loftsgordon Hill,Texas,75260,United States,US
343879ed-4b71-43cd-8e0c-b69840893d82,24 Katie Center,Florida,33961,United States,US
d343e1a3-4d55-4756-94bc-7bbc0eddc9fd,40130 Barnett Parkway,New York,11044,United States,US
b5d74c14-a4d9-4128-9dfb-521cfa648f47,1 Schlimgen Center,Kentucky,40618,United States,US
158bf54e-fe71-4637-8d6c-b7ce66cde329,4 Oak Court,Pennsylvania,15286,United States,US
9973b741-424f-4872-a748-e1193ae84eb7,886 Quincy Center,Texas,76162,United States,US
2e4db581-844f-4f2d-960d-018cc54494b9,43959 Grasskamp Place,New York,11431,United States,US
da8f2f8e-f358-41b6-b4e1-869d1c1f9fc0,98 Northland Center,South Carolina,29411,United States,US
fd519cab-77e8-47aa-975e-2e2c08e2716f,07 Pierstorff Hill,Florida,33758,United States,US
db724471-ce2a-41d5-b2f8-e2067e7e01ab,104 Sage Drive,Texas,79984,United States,US
9f36044b-90e0-4479-900f-739762961a9e,5389 Fisk Way,California,90010,United States,US
e3c36910-116f-454e-a25a-bd4507c1fe89,3944 Green Ridge Crossing,Florida,34611,United States,US
71f732f0-10cc-4074-8729-e88519735ebc,8177 Muir Road,Alabama,35236,United States,US
5bc5b32e-7aa5-4fa2-b989-c09b338f10cf,9698 Anzinger Trail,Texas,75205,United States,US
f9f3b286-191b-4146-b85b-a23079800933,8366 Pawling Circle,New Jersey,08608,United States,US
b07050d0-f0df-4104-861c-b31141ef8561,3923 Lillian Hill,Illinois,60351,United States,US
696ce879-7df6-4ef1-96be-32478283c9e5,2 Kingsford Hill,Florida,33673,United States,US
d4807ec2-7ff6-4351-b025-1f8553a87c02,7 Northfield Drive,South Carolina,29220,United States,US
73db3d6a-472d-4ccb-8074-b90a95a254ff,23411 Portage Avenue,Wisconsin,53710,United States,US
7fb98c8b-b88d-4e26-9f9d-e2f08d9d8b35,9286 Mitchell Trail,Washington,98417,United States,US
4365c519-d215-426c-a5f1-9560d5e707a5,1150 Sullivan Parkway,Virginia,23242,United States,US
7fded38f-d1ff-4f98-8cc4-e195bf5db562,26 Glendale Place,Oklahoma,73135,United States,US
9af6fd88-8876-4292-b911-12383162c8d0,47880 Holmberg Lane,District of Columbia,20530,United States,US
8e26976c-3a2b-43fb-8b68-c9027b855cf2,72765 Dwight Way,Ohio,43204,United States,US
9867a13a-9ed4-49a6-bf46-65f849b4ce18,68 Kim Pass,Texas,78285,United States,US
f6be2978-93e3-401e-8d3c-2e966839b755,211 Columbus Alley,Washington,98447,United States,US
cf144e67-d9c6-4f3c-b15b-04736c062df9,642 Russell Place,Pennsylvania,18768,United States,US
01ebb27a-91b6-4005-9bf9-c5a743ba5a8b,2355 Center Center,North Carolina,28230,United States,US
ff19adf3-831e-4fe9-8d4d-4c1fc8bc2ef2,6685 Grasskamp Court,Georgia,31190,United States,US
4ef2f7c6-4d93-4870-8539-e090cc5a246a,752 Loomis Court,Oklahoma,74141,United States,US
45016889-5ebb-4cd7-b837-5b73160a529f,003 Hollow Ridge Alley,California,95354,United States,US
11d2bc67-4461-4dc7-b5bf-c1a7d81e88e8,136 Jenifer Way,Texas,79171,United States,US
732a769d-26c2-4f45-8f67-126ada95eb01,13774 Erie Road,Ohio,43268,United States,US
d6b3a864-55ca-4e6e-a386-933e52df47e5,52 Gulseth Crossing,District of Columbia,20420,United States,US
fa944607-03bc-4bad-b55e-55b8d4ac8415,5 Esker Road,Florida,32590,United States,US
c6783168-9df4-4a47-8de5-27a49d7e077b,17569 Tennyson Junction,Minnesota,55470,United States,US
a97d381c-e0b4-46f0-b83e-5bfc30bb7e02,23 Lakewood Gardens Hill,Virginia,22093,United States,US
5a81275f-aa1e-4c87-8ffc-bc171558e7a2,3838 Crescent Oaks Circle,New York,10280,United States,US
3582ab09-2c4e-4adb-a591-19a6c5d87798,012 Sommers Place,Florida,32123,United States,US
13883be2-c911-48cd-86a3-fbdcf42434ba,08 Spenser Crossing,Colorado,80935,United States,US
37c7d42e-ec46-4f1b-b696-53820a20e3c2,95 Cottonwood Road,California,93407,United States,US
4ea12b8b-740e-411e-9ba5-a7b5c4743014,3620 Aberg Parkway,Texas,88558,United States,US
98340bd3-8a0e-4861-95fe-8aacaa4b85b0,21008 8th Alley,Massachusetts,02162,United States,US
e9b171cf-ce03-45c1-86ac-d13d76af9235,893 Northfield Hill,New York,12227,United States,US
c0aeef75-2b8c-4703-a8b4-ecd260408fd7,4368 Utah Street,Ohio,43215,United States,US
cad5578e-45b8-4cfe-a883-294fa079a605,36036 Farragut Crossing,Michigan,48295,United States,US
602b1953-f5b7-4618-92be-63eef3ab25dd,01 Park Meadow Park,California,92662,United States,US
dfc8e2b9-8fb0-4c09-bb7e-a34ee57754f5,66 Grasskamp Hill,Tennessee,37995,United States,US
46777a49-377b-448d-8efd-b0cb0dc42035,1 Commercial Alley,California,95150,United States,US
2ddc9cd9-bd3b-4f7f-b0bc-13971a585b02,63251 Mallard Drive,California,92555,United States,US
cfe1deb1-03b9-4966-820d-2ca1a861a306,10508 Fairfield Junction,Pennsylvania,19605,United States,US
28dcf740-488f-4a9b-8bba-c620677e6099,33 Fair Oaks Street,California,90030,United States,US
95f07225-d944-41e4-a8ed-7ec9eba6658d,42860 Forest Hill,Hawaii,96810,United States,US
b3103919-f0e5-4c40-ab5f-665123c0825a,3 Golf Hill,California,94126,United States,US
7afd6c25-f7ec-4f84-8684-0204b7317048,09 Westerfield Hill,Georgia,30392,United States,US
7e465e87-8d5a-4c0e-a596-b5ab2d74955b,4744 Macpherson Point,New Jersey,07104,United States,US
2a3ebef9-d2b4-4ccf-9f30-164a002912eb,6498 Nova Park,Colorado,80204,United States,US
eb4cb0b5-689a-4262-b118-866f85afacd3,62358 Prairie Rose Lane,New Hampshire,03804,United States,US
6f151f14-2c36-4bd5-b876-2c58254a106e,7 Algoma Circle,Connecticut,06905,United States,US
66b1852f-98b2-4f25-9bbb-8bf5d9c61ac2,027 Gulseth Junction,Arizona,85020,United States,US
8c25abe9-419b-41f7-8a42-b82a45e091f5,52 Jackson Avenue,Oklahoma,74141,United States,US
66d3668a-26bc-4d70-b2cb-bcd4d38556a8,96 Grover Trail,Nebraska,68583,United States,US
aa6c406e-3cf4-4ba7-af97-4d3ccc76b240,68396 Anzinger Point,Maryland,21282,United States,US
14d0b719-ecb0-4b2d-bac4-c8a81e947848,08115 Huxley Park,Connecticut,06816,United States,US
1f347c98-9f64-4d21-87ed-765b7700b77c,21 Luster Junction,Nevada,89595,United States,US
ac5086cf-0a66-4adb-a751-6cdc2a9f4736,329 Dovetail Place,Ohio,45243,United States,US
9b7f24d2-7d9a-4781-a6dc-29dda60c0449,5 Buell Center,District of Columbia,20205,United States,US
a47ed0b8-7f29-483b-8a9e-b7471831f286,5 Ludington Lane,Texas,77223,United States,US
1acc2c8c-3477-4a60-a656-646198dfdbc0,2987 Autumn Leaf Avenue,Georgia,31190,United States,US
74c53d46-5e33-40d7-be33-0f7308a34763,2 Warner Terrace,California,92662,United States,US
f6bf0555-fba4-4f3f-aa16-e62de5446838,6264 Commercial Way,Minnesota,55811,United States,US
18dfc888-ad29-45fa-a52e-6d91c4a63bdc,6899 Cody Terrace,North Carolina,27409,United States,US
f0291a12-5592-4c07-bb96-3c5288c13208,6 Karstens Alley,California,92878,United States,US
bd3586a0-b450-46b4-b80e-fc9cca45fc20,19158 Nancy Alley,Nevada,89036,United States,US
703901f9-6d0a-481f-9c1d-bb18f511ac2d,4993 Schmedeman Lane,Nevada,89519,United States,US
949f2400-b399-42a5-99c2-ecf876b8182f,85 Hazelcrest Center,California,92165,United States,US
036ee4df-64be-4927-9552-ed25dde7f15c,98806 Delladonna Park,California,93715,United States,US
d64ac32b-7ca8-4f79-a124-991910196021,00914 Service Place,Arkansas,72231,United States,US
633d84d0-c7af-4a1a-80de-e044ab8a62f7,2714 Fulton Lane,Iowa,51105,United States,US
a9ae0c7a-1e96-4205-9c3e-da1c8a06562d,1202 Arapahoe Circle,Kansas,66606,United States,US
33559668-09c3-49f8-ba51-858af63fb5a9,181 Lillian Park,Ohio,45426,United States,US
a24fe733-01c8-4c0e-9011-3547ff083db0,75 8th Way,Illinois,60641,United States,US
582b58b7-50d5-4622-a276-6b6d6c9f1043,50 Cottonwood Alley,Wisconsin,53785,United States,US
c3c24293-5cd4-4da1-9bbe-0b322c0157dd,85 Golf View Drive,Florida,32230,United States,US
ecd94d52-8351-4598-a2ff-bd38b18d3a88,41 Del Mar Lane,Minnesota,55905,United States,US
64aa5cda-a277-47b5-93d1-a0b8c338947d,0350 Ridgeview Trail,North Carolina,27615,United States,US
94950e68-879f-4ff2-873e-6e60066a239e,5 Mosinee Lane,Georgia,30306,United States,US
26da21f6-ec3b-4612-9ff8-1ba40084926a,194 Elgar Circle,North Carolina,28278,United States,US
d10632d0-a51f-4abb-80a2-f62684a7c8ad,2270 Kedzie Center,Mississippi,39210,United States,US
a7ee326b-cbd1-4ab2-992e-e98511110475,68 Birchwood Hill,Indiana,46896,United States,US
31e6ccb7-9c04-4205-98ef-1e46c1a80bc0,1 Kensington Pass,Tennessee,37210,United States,US
6d4aa22e-9201-4a64-9ef5-cc27965c8335,40312 Caliangt Junction,New Jersey,07104,United States,US
b62a86cb-ba69-467f-99f3-fac0755ad52c,1 Kings Parkway,Texas,79994,United States,US
1e42e798-bdea-4de2-8f92-9766c358d471,12 Grim Crossing,Florida,34135,United States,US
6143a99d-cd87-473b-bdb3-00ef2230a57b,04 Fremont Drive,New York,11247,United States,US
2dd93057-0cd6-410f-9f0e-bed259157348,9 Graceland Circle,North Carolina,28247,United States,US
05e8b91a-8a5a-43a8-a303-ddce87b57868,07 Namekagon Court,Missouri,64125,United States,US
96cf6a58-b771-4d5a-875d-80a7430266ac,5098 Grayhawk Pass,Illinois,60630,United States,US
3f931fd2-9c4b-4729-9bcd-1e8ac4ac773e,6273 Memorial Court,Maryland,21705,United States,US
4ec63313-fbee-42bd-9c49-a02dd75a8dbf,63 Dennis Park,California,93381,United States,US
a80a3533-ad3f-4f8e-a256-b2f5859af093,1536 Kensington Crossing,Arizona,85297,United States,US
b4af356c-3f67-4d65-8eef-be402d03f3aa,0 Claremont Crossing,Louisiana,71137,United States,US
10464697-1b5a-4e69-9f72-9290899eb811,07 Hagan Lane,Illinois,60624,United States,US
ca780785-6dd8-47ba-9fa2-4265e216d34b,32625 Clyde Gallagher Way,Arizona,85215,United States,US
1f7aee53-6c9a-49a7-9535-2e6fd6520f21,7 Sheridan Terrace,Colorado,80270,United States,US
0194dae5-cfa0-4977-8a54-9152fc2a6cfd,59863 Schlimgen Center,North Carolina,28284,United States,US
7a2a8523-5597-4f35-85ab-10c6b76ff182,75 Huxley Trail,Texas,76796,United States,US
0f3c24c4-5c8f-48fc-980e-c70e62796b49,1 Grayhawk Circle,Texas,78296,United States,US
d9c5df9f-4d94-4822-b69e-bf0e6a8b4f6e,97723 Oak Plaza,New York,11247,United States,US
aa5783d9-293e-4d03-a7f7-133af9142cdb,8 Rieder Trail,Wisconsin,54915,United States,US
9f355592-d306-417d-bdc9-9c9513ad3a9d,15565 Dexter Point,Pennsylvania,19495,United States,US
0e65d27d-63ca-4086-8ebb-45658fae867c,7 Butterfield Crossing,Florida,33233,United States,US
d9ad1ccc-e6c5-4847-b95f-8e7173370629,00 Ludington Center,Florida,32215,United States,US
6b46a8f1-267b-4e67-83b8-d3cce4923395,72504 Commercial Junction,Florida,33731,United States,US
35198c88-2863-4779-9f9c-56b401dc2af4,7 Reinke Court,North Carolina,28215,United States,US
268fbfea-58ad-4022-950c-b88b35376221,877 Bellgrove Parkway,Virginia,23225,United States,US
20cae7b2-93b5-4086-b7e4-1bbdd5f5680b,144 Anderson Place,North Carolina,27409,United States,US
6f94b10b-f467-4a10-a0ec-6613c769599e,5417 Hauk Drive,Texas,75710,United States,US
d7c97137-faa1-4ded-b439-fc19995b3b05,32512 Barby Crossing,Hawaii,96840,United States,US
aabc1f0d-9a72-4f0d-b8af-425ae6c6fbce,083 Cascade Street,Ohio,45264,United States,US
50a75b06-50b7-42d2-8e3a-af6e6bbc8a18,9 Ludington Point,District of Columbia,20036,United States,US
425c961d-6b16-42fc-b01f-d977a4e5d70c,7 Vernon Alley,Missouri,65211,United States,US
28e0ca35-bf63-425f-b69e-f20383bdcb65,01949 Carioca Terrace,Florida,32919,United States,US
8d7f1f48-0265-42f4-be86-c37ca831fa58,02464 Sunnyside Park,California,92115,United States,US
0dfe7826-a8ec-457c-b354-ebc145c9082b,0 Sycamore Parkway,Pennsylvania,16522,United States,US
3064a668-8b38-45e1-944b-764c98d2af78,6161 Scott Junction,Texas,78778,United States,US
b6baf9d0-eaca-4f7b-95f8-324671e62933,29 Pepper Wood Street,Florida,32885,United States,US
45f62ec2-74e5-4480-b2c5-0337b4b05fbb,15 Nelson Avenue,Montana,59771,United States,US
df66d400-a7b0-4a64-926d-8ca1626f6000,801 Autumn Leaf Parkway,Idaho,83722,United States,US
2741f6d6-84c7-4d3d-b038-839d932bcc8d,07204 Onsgard Trail,Louisiana,70505,United States,US
6fd0d4ba-8b87-4dfc-b3ce-6adddb79e04f,0931 Sloan Crossing,Missouri,63158,United States,US
1da140cf-5076-4e78-ab42-f7ec4507db92,0893 Wayridge Park,California,90015,United States,US
71e203a6-b22a-4c16-b805-dff46cc36883,6 Golden Leaf Lane,Florida,33625,United States,US
c7bea43c-8e1a-41c6-b3a6-eed89bddf6a9,61 Spohn Street,District of Columbia,20057,United States,US
04ffccc2-bcb1-40c8-8bbf-9374e4562d99,925 Delladonna Crossing,California,93311,United States,US
6f0663fe-957e-4858-8760-5a989b25bb85,26 Wayridge Avenue,Maryland,21282,United States,US
a0560321-52be-430a-8ca2-d0448e9f866a,21847 Manitowish Junction,District of Columbia,20546,United States,US
c272999c-00c9-4fc6-accc-58368ed9baa0,5047 American Parkway,North Carolina,27409,United States,US
73c67c95-2c37-4c75-a4d2-1e6122e430bc,44 Dahle Lane,California,94975,United States,US
a5a8b0f9-fe66-45bf-800d-c513d91007a9,831 Hallows Circle,California,92105,United States,US
b0c81d98-3d00-4c47-8e13-d5bf17f19c4b,29 Tony Street,South Carolina,29203,United States,US
da5c5e65-7cef-4cd5-8294-f599226b074e,599 Granby Lane,Maryland,21229,United States,US
d35365cb-e67e-425a-ab0c-37c3d8df8a0e,96347 John Wall Circle,Florida,32590,United States,US
387ad352-1e44-49fd-a47e-f58804313900,24 Vernon Street,North Dakota,58122,United States,US
2ebee501-1fc0-4596-a308-c2898c118e5c,4071 Holmberg Terrace,New York,10270,United States,US
cc804020-d5c0-4e71-974f-cf04b2592f18,01168 Merchant Lane,Washington,98158,United States,US
e75d0e67-cbb9-46c0-a571-f114dcfcb78b,37716 Caliangt Park,California,93291,United States,US
c6d33084-c096-4312-a104-0d4a3b7815ca,862 Brentwood Point,Michigan,48107,United States,US
0fba4f8e-a04a-41b1-9fad-7fde6f989d0a,078 Hudson Lane,California,94142,United States,US
29d8917e-29f4-48ec-b6d6-a7e60998b622,836 Village Green Road,Oregon,97286,United States,US
f03bb1b9-4d31-44a0-b3f8-a57105ca4c3b,150 Ryan Terrace,District of Columbia,20503,United States,US
6e32394d-812c-451e-9567-7423d7b61879,20468 Warbler Way,Florida,33064,United States,US
26a2931c-d7ad-4904-9380-fd3b93b8f96e,65198 Dunning Terrace,Florida,34108,United States,US
e788c2af-78a2-449d-b1c9-48da43ba576d,711 West Plaza,Florida,33647,United States,US
a77fd7fd-6533-4190-8dbe-678098140401,86030 American Center,Iowa,50305,United States,US
3043006c-7819-4416-879e-2b4aca7c62e1,6846 Raven Court,Colorado,80291,United States,US
3c800a6d-3a5e-4fd5-9c84-a2610c2421b2,07823 Glendale Plaza,Louisiana,70005,United States,US
e441d50c-d79c-4027-9d75-2d1ddc906b1c,59589 Transport Road,Florida,33805,United States,US
126da8f0-67dd-4742-852b-e8cf57cba399,316 Scott Hill,Virginia,23220,United States,US
2c453b48-117a-419a-a55b-d56e3b693b88,1 Veith Center,Virginia,23471,United States,US
9a7bca3c-e825-473c-bd29-76bb906ced70,480 Washington Crossing,Texas,75185,United States,US
accbde4c-57be-47bc-8e4b-1bf17656ab10,735 Monterey Way,Massachusetts,01114,United States,US
65398891-8b60-42c3-99eb-2336324067c5,7 Pleasure Court,North Carolina,28289,United States,US
af02f63f-e9d8-434b-b06f-b24dbf22874e,6868 Merchant Place,Texas,77201,United States,US
4416d6d4-b7cc-4e6d-8c58-33112e071843,7 Mayer Way,Delaware,19897,United States,US
60115c4f-aeac-49fd-97a5-b2cc966c0f9c,36689 Little Fleur Point,Connecticut,06606,United States,US
9a3a3f46-dc55-4785-97d4-6dc9f07902c8,3 Lake View Place,Missouri,64199,United States,US
3d2966e4-37d4-49d1-84f2-fbacf125c074,544 Fulton Parkway,New Mexico,87190,United States,US
4bb432c9-c4e5-4439-91f7-1ac8280633e5,69149 Cambridge Junction,Louisiana,70165,United States,US
1131bf46-156f-4028-8030-96bb1fc0c2ce,2247 Myrtle Point,Minnesota,55146,United States,US
ad2ddfb8-8759-44ae-82ff-95a29880171c,97 Warner Alley,Colorado,80249,United States,US
8944f056-e605-46f8-b5b5-e1a6c7aaabcc,50 Scott Avenue,Kansas,67210,United States,US
5341a5b1-7ff3-48b3-9382-f062b182a309,4512 Weeping Birch Avenue,Texas,77035,United States,US
b336bf4c-a92b-4ec3-ad2c-aa67307f9a31,27 Melby Plaza,Pennsylvania,19605,United States,US
e93f4ce3-982b-4982-aced-084e9b29171d,41123 Erie Junction,Utah,84145,United States,US
ef70771f-4973-44ea-8d57-0763b05eb2f1,795 Sloan Junction,Connecticut,06606,United States,US
f2c6162f-5956-465b-acc6-a99fc8f3fc61,5358 Dunning Terrace,California,93750,United States,US
83ea8de2-201f-4457-8347-0428e7aa7d3e,0649 Artisan Terrace,Michigan,49518,United States,US
1036c269-dc3e-46bf-b828-524d0dad2384,2 Carioca Alley,Florida,33625,United States,US
33ba5aac-0bba-41e5-92b7-613264a90dfb,28 Scoville Terrace,Ohio,45254,United States,US
18e96f5f-1be7-44a9-9e87-33e3f9054808,6772 Kipling Point,Kentucky,41905,United States,US
f120153f-ad82-4dc4-803f-01444dabca82,74 Ilene Crossing,Wisconsin,53210,United States,US
c486ccd3-b718-40fd-8025-81c698c13111,1283 Dwight Park,Texas,79984,United States,US
853a9a9a-e22c-4a53-a08a-edd5ea3f5058,4 Hanover Center,California,95828,United States,US
47c546b2-746c-4e1f-af25-121a0bb2feaf,574 Kim Alley,North Carolina,27658,United States,US
4b756ed7-7066-42b6-a1e2-7ea84db0eb50,9152 Hanover Trail,Minnesota,55557,United States,US
41c04e3e-ec90-48ce-b927-8f7eef4d1b5c,921 Karstens Crossing,Tennessee,38181,United States,US
4a45fdbc-254c-4cb9-9232-d287ff4aeeb6,5 Ryan Point,Montana,59112,United States,US
fc3d89b9-2072-4ce3-835c-2120967aad1a,5060 Mendota Trail,Florida,32868,United States,US
a6ed59ad-f37a-42bf-9ec6-6042e46cf1b2,9854 Pearson Point,Texas,79171,United States,US
0963fedf-f00e-46d5-9c55-dbe1bc1db0c3,41 Dayton Pass,Indiana,47937,United States,US
bc3a02e1-347a-42e2-ab0a-13cb73ee8ea7,13247 Nova Center,Tennessee,37405,United States,US
d2cf9259-2637-438f-8018-7aa1c44865e0,6 Merchant Court,Arizona,85062,United States,US
1749b7e3-418b-4ee0-b54d-081d82f37310,0326 Brentwood Trail,Pennsylvania,16107,United States,US
b1bf6d1b-ff5f-4a42-ac2b-bbbe0ce4e9d0,05 Hanson Pass,California,93106,United States,US
735afef6-7040-41fb-a6a9-21be06ba514c,4 Westerfield Hill,California,90410,United States,US
525a9d7b-a62a-489e-acdf-292c0f80af0d,6469 Hayes Pass,Ohio,44197,United States,US
5dc9f7dd-fab6-42f8-a926-ff45ff06838e,5 Farmco Terrace,Arizona,85246,United States,US
381111d8-fb2d-4145-81ac-55fc30bdc91b,73419 Blue Bill Park Drive,Colorado,80299,United States,US
3097c3a8-444d-4266-9b67-d80dc48cdda7,9 Susan Place,Oklahoma,74103,United States,US
e3cd3a0a-8ad4-4f26-8678-a8e2f94274ac,199 Ohio Hill,Texas,88553,United States,US
e740a384-ea2b-42be-ba74-f2d1947286d0,7 Lotheville Lane,California,95828,United States,US
5c93563c-ad98-4d4f-af5b-4c71a8314e61,116 Melody Parkway,California,90410,United States,US
87acbf85-5cc2-42c9-9afd-bd5bf8a461f7,14 Shoshone Crossing,Texas,75397,United States,US
71bdad0f-f101-4433-9072-3ee7c39a2e3b,6 Kensington Road,Texas,75246,United States,US
3cb8f9b7-e785-48f9-a071-d0e8ce7e51f1,3 Straubel Center,California,92825,United States,US
e83b5d66-4e49-41ad-b068-05201e96b8f8,0 Rockefeller Alley,Texas,79916,United States,US
9493261e-002c-4f2c-8446-764bab3c4aaa,13135 Orin Center,California,94605,United States,US
b3e80f13-9ced-480f-8b0c-f429378c7c14,51115 Starling Pass,California,90060,United States,US
8271ef69-5de6-498b-a71d-6f290471ac87,4 Kim Junction,Minnesota,55557,United States,US
4b2b2f6b-46f2-4afc-8244-b6106e464d3d,7 Stephen Trail,Florida,33245,United States,US
3c1efa2e-112d-43cd-bb64-df2e0eb0a7fd,72 Atwood Lane,California,93291,United States,US
01605124-8173-4e3a-8fd4-1f34d46f18b7,9 Messerschmidt Way,Missouri,63116,United States,US
dc88e1a7-8a97-4cb7-b377-4a48eaec93b9,31754 Nobel Center,Virginia,23471,United States,US
8c5a06d9-b017-4da1-a0bf-73880dfd4bb2,85876 Scott Trail,California,90040,United States,US
7cc0277a-cde0-4eec-8171-7e93ae5cd995,2529 Gina Trail,Texas,76192,United States,US
fc5207fe-d234-4296-932d-70f0a6490c61,8916 Karstens Hill,South Dakota,57105,United States,US
a5a42152-647a-432c-b0a9-c3aad895dfee,415 Lawn Crossing,Missouri,65218,United States,US
2c4b10fc-4204-4931-a185-8b13b3f60b7a,26494 Grover Place,Virginia,22217,United States,US
2026af43-a8a5-4e7e-964a-444ea647111f,832 Forest Crossing,Indiana,46247,United States,US
9d009cd5-fe57-4406-b541-1ba686f54b1f,54827 Garrison Alley,Pennsylvania,15279,United States,US
64eee679-23c1-40fc-b751-9c9d046d961b,01 Sommers Junction,Indiana,46896,United States,US
f8e1acb6-83c2-49f7-a183-7c01ca6739d4,7 Messerschmidt Place,Massachusetts,02745,United States,US
d8bdfb4e-ce0a-4e18-84c4-d4e522ccdbc7,740 Lakewood Gardens Parkway,California,92505,United States,US
3e6c3d27-d6e1-474c-a96c-5cad135a4b5c,1075 Darwin Hill,North Carolina,27635,United States,US
8cf4c7ff-4bb1-4c25-b576-8310b76a9140,99 Merchant Hill,California,90040,United States,US
88e859b9-98b0-460e-929e-48500f63e441,3 Northport Parkway,Pennsylvania,19093,United States,US
99fa19c8-24cb-4870-a785-fa5e70818f98,7077 Nova Crossing,Colorado,80910,United States,US
b289127b-0a34-4add-9031-1104bb5c10d9,487 Ruskin Lane,Ohio,43699,United States,US
1e4cdcc7-0884-4d19-8e89-218b6cf96ac5,3581 Jackson Avenue,Connecticut,06183,United States,US
568fb0ed-0712-462c-ad8b-0e72ef6a5500,5533 Sunbrook Alley,Georgia,31132,United States,US
d84efdbc-bd18-48b1-81b5-772a66a83357,7 Schiller Park,Virginia,22205,United States,US
2f5eae66-d26b-41ea-a58b-05308b180534,1 Killdeer Trail,Delaware,19725,United States,US
4a1f438e-d098-4979-acb0-b7085f523f7e,4684 Mesta Street,New York,10115,United States,US
0ac8ab25-12b8-4bd3-babc-247d58d64bd7,08174 Vermont Circle,Florida,32830,United States,US
176cf83b-26af-4157-971c-05d557e91ae6,0135 Anhalt Court,California,90831,United States,US
3cd7b71b-cc64-403c-8068-6ea3d516f167,9 Marcy Junction,New York,14210,United States,US
5d351a55-63d0-4ca2-9c7d-764a499330a5,47 School Center,Pennsylvania,19104,United States,US
42a7a7ec-1446-44f5-8cf6-7d13332a2f44,6066 Manley Plaza,North Carolina,28235,United States,US
78581a5e-6bb2-4997-8c2e-55579c3494dc,63718 Arizona Road,Georgia,31914,United States,US
f4c4c9ac-080d-49f8-bf8a-ceec637df32e,37 Magdeline Lane,Texas,75342,United States,US
66896c8e-2ed5-43b6-ace7-77003350642f,68765 Hoepker Crossing,Virginia,24004,United States,US
fdbe46b1-ed2f-49e4-801d-96f9407b5b9c,79161 Butterfield Plaza,Missouri,64190,United States,US
e761c8fd-2f2a-4446-ac01-3e74fda8a355,7286 Katie Center,New York,13210,United States,US
28e173c6-d405-4ac4-8547-bd8c942b89ee,28 Nevada Circle,South Carolina,29403,United States,US
037a6971-953b-4955-a85f-021fd314b790,3 6th Junction,New York,10120,United States,US
5f395b29-5364-4db6-8dc1-8f8bd29896a0,250 Morningstar Plaza,Idaho,83722,United States,US
dd9bc56d-ce9b-4be8-a2f0-c3a329caf1af,3018 Hansons Avenue,Alaska,99522,United States,US
e3919f21-afb9-4dd8-9c6c-6cd7461af841,25332 Parkside Crossing,Ohio,43220,United States,US
72b507f6-f76d-48da-af3e-6b1a2087ee28,08 Morningstar Terrace,West Virginia,25721,United States,US
48084ab1-b244-4ff1-9308-2631b6922e46,286 Knutson Road,Missouri,65805,United States,US
637210ce-94ea-422e-9370-7a7884fb23e6,7996 Vernon Place,Nebraska,68105,United States,US
c3d37e55-bcdd-4b1d-a7ad-833d867d4d99,75 Manufacturers Hill,Tennessee,38143,United States,US
aba4d4e2-9847-4fca-8f35-dccaa60e2329,19404 Golf View Pass,California,95852,United States,US
468d2812-016d-4ad1-98c2-7a41463ea5da,17851 Stephen Place,Texas,78759,United States,US
b987e788-1734-45b3-974b-c1c8639fa457,834 Del Mar Way,California,92030,United States,US
861793d5-6040-4195-bc15-8a1d6da96cc2,910 Mitchell Road,Texas,77245,United States,US
bb3f7198-3ba5-4d68-bf2b-43f36f202a1e,1 Pine View Crossing,California,91103,United States,US
607b9e4e-e82a-42e6-8bfa-5980355e2dff,81069 Gulseth Plaza,New York,14604,United States,US
e8f121d3-bda8-4f9b-8bd8-42d7b1cbf771,1824 Vermont Avenue,Texas,76711,United States,US
85b3208e-b312-4eb7-b115-3658b806ec40,703 Dorton Court,Washington,98104,United States,US
ebf78a7d-e579-41ea-a52e-e24236b10220,2560 Glendale Place,Indiana,46814,United States,US
bc710bd3-df93-4139-b9dc-5362b06287a9,94 Marquette Crossing,California,95219,United States,US
fdcdb261-bd07-46bb-9b72-f460f32a0700,92 Blaine Circle,South Carolina,29805,United States,US
5693dfc7-f116-429c-b9ef-bb7f78d06617,6473 Golf View Drive,Texas,79705,United States,US
9ccca6ae-1c25-490f-8066-393625f80417,3 Clove Park,Texas,78726,United States,US
7b4efbbc-c503-4222-b4df-b8fd49b23878,01346 Weeping Birch Way,Virginia,23285,United States,US
33cd78a1-63f3-463f-b3ad-a46bb0c055da,82 Stephen Road,Georgia,31106,United States,US
507c6e84-4e6b-41b8-8b12-dc180e38186b,9 Maple Circle,Florida,33345,United States,US
b61e4b8f-1af8-470c-8428-4fccf7617721,63577 Forster Alley,Pennsylvania,19136,United States,US
42c2878f-8146-4b89-ad13-1dc207e558a5,012 Emmet Crossing,Alaska,99812,United States,US
8d090b10-a5a2-4fc4-b434-04808337f091,80 Bartelt Place,Colorado,80935,United States,US
40c03316-75ab-4d95-9c21-f75f61b9e025,789 Sutteridge Road,Arkansas,72204,United States,US
c8afe9e7-dc13-4839-8b17-68b017f40e71,9428 5th Road,Arizona,85205,United States,US
7ead57e6-893d-402e-8e95-f291b8fbfb84,7845 Rutledge Way,Ohio,44329,United States,US
78747d73-c7fb-4362-a552-875585f91e98,5523 Clarendon Road,Louisiana,70033,United States,US
e0e37adf-53d2-4fd8-a9c6-0d44140f7ab1,20232 Sachs Road,Florida,33305,United States,US
35bd5919-dcb1-4da5-9de0-f8c10d4c761c,3 Stuart Center,Maryland,21265,United States,US
794a2b51-ca02-46d0-ba4e-a7140fc9962f,273 Independence Street,Illinois,61105,United States,US
931b6417-5997-47d8-8b63-0f7b43f3c63a,8 Old Gate Park,Texas,77015,United States,US
64721ad9-afc6-4111-bf1e-2224d70270f2,4977 Sullivan Hill,Connecticut,06905,United States,US
a2c4b726-9871-48f7-9ee6-8aa61d8dd2ef,5 Sage Street,Kentucky,40233,United States,US
1633e968-1a83-47f0-8cf6-becfa7363655,60 6th Drive,Connecticut,06726,United States,US
b701071a-b185-46d2-89ed-44e9dfc4b4ca,6594 Coolidge Parkway,New York,14905,United States,US
8aa54852-10c3-40d5-9c7a-9b18a969965c,8483 Merrick Parkway,California,95173,United States,US
99df44a6-b167-4a89-8e0f-30fb03a7d5c5,2131 Lake View Park,Utah,84152,United States,US
cf9672fb-0c00-4c6c-bf57-78b83a387b07,75270 Wayridge Way,Washington,98498,United States,US
9f913ce4-0f80-4d29-8355-fafeb1666f1f,528 Northport Road,North Carolina,28314,United States,US
29f1656e-8ec5-4cca-8b41-c4b5d94beab8,6954 Moland Way,Florida,33543,United States,US
8f5dbdf8-e72f-4487-acb9-dc8bcb3065e4,241 Springview Place,Idaho,83705,United States,US
05fa07c8-4a2c-490d-a7ec-f7aaa1f69099,3384 Forest Run Terrace,New York,13224,United States,US
b87df5f4-ff2c-4f1d-9661-8916733e46fc,138 Westridge Alley,Pennsylvania,15279,United States,US
fbfcd68b-7282-459a-8130-cc4ce93634d1,168 Hooker Hill,California,95813,United States,US
94847f27-5743-466e-ba3a-9f8c28a600d6,21356 Norway Maple Road,North Carolina,27705,United States,US
7b604b7b-d06b-4e68-a976-418851ec71d2,0 Harper Hill,North Carolina,28055,United States,US
336bf45a-4b11-4db8-9db8-064fdc950d42,2 Luster Lane,Minnesota,55407,United States,US
51fbecc3-e45e-45d9-b511-1954dd152c36,776 Cascade Court,Kentucky,40256,United States,US
d7868ca3-022f-4fdc-a9d8-8b25339932c8,76941 Crescent Oaks Way,North Carolina,28405,United States,US
96039fb3-77d2-44ea-a95f-7aa85b4f1ea5,5 Old Gate Parkway,Pennsylvania,17121,United States,US
4050d784-ac2c-4ecb-b1d8-cbe9417274f5,2640 Banding Terrace,New York,12262,United States,US
059b1845-92e1-44a4-814a-b87e9c4e69d1,2 Gale Avenue,Virginia,24034,United States,US
489b7fce-444f-4f1c-a137-c55dc21ec1cb,324 North Lane,Oklahoma,74133,United States,US
0d30a544-5382-4a87-a345-1362a301515d,16 Village Drive,Connecticut,06905,United States,US
433b1c3d-b683-4370-a839-3a2aee36b91d,4319 Esch Park,Minnesota,55166,United States,US
7981a52e-5bc3-45b7-bf4e-5e15c55ac69e,3 Redwing Center,Hawaii,96825,United States,US
ef542219-a6a1-4d2c-910d-1553126c4312,6132 Maywood Street,District of Columbia,20436,United States,US
d45c08aa-aef8-4ffe-b9ee-4d55acf41f61,00328 Fair Oaks Avenue,Minnesota,55402,United States,US
1ca9cde2-09d3-4fcd-8371-914e97958efa,6426 Kedzie Parkway,New York,11499,United States,US
c44d11bb-9e2d-48f9-96ed-7f1065db26d0,4476 Alpine Center,Minnesota,55188,United States,US
708bd587-8613-434d-9799-b103fd9acbbc,39248 Maryland Point,Colorado,80161,United States,US
bf61212d-d18e-4e95-b683-c51dee016cbe,4 Bowman Crossing,Nevada,89178,United States,US
a043a231-44a4-4179-8875-1aa670588661,7865 Bobwhite Court,California,92662,United States,US
f2d2a073-9640-4710-907c-1f64db4f0709,2 Hoepker Plaza,Texas,76134,United States,US
97ce1b0b-8022-4917-9737-667f3b82b6a8,3 Buena Vista Avenue,Alabama,35236,United States,US
f1ca239c-51af-434f-8e72-09e58d260675,73 Onsgard Place,New York,10606,United States,US
15d6f91d-dca8-4005-b2a4-d290a5fd2bc7,6824 Bluejay Court,Minnesota,55407,United States,US
b8035e56-9f91-4e9c-a11d-e6b24eb203ef,0 Cardinal Court,California,92822,United States,US
ec7da6e4-fc6f-465b-a68f-892667f12040,13 Old Gate Crossing,Texas,77035,United States,US
996c0cef-c2ab-45a1-b130-2f9d31011ad9,3 Twin Pines Park,North Carolina,28305,United States,US
8904a8f8-5e29-4127-8ea9-81025063f322,1816 Wayridge Plaza,Kansas,66622,United States,US
ab1e3284-e6d9-48eb-9cf9-56515e52e3ec,32 Monument Trail,Alabama,35290,United States,US
bd41fbf9-052f-4234-94e9-50cfe188e5e5,83 Burning Wood Junction,Mississippi,39216,United States,US
587cd920-362d-4655-a2e1-8dee4540d17f,36881 Commercial Plaza,Iowa,52410,United States,US
942d0073-e9d0-4368-8ab5-e08538d052e7,085 Stephen Terrace,Alaska,99599,United States,US
132b18b1-42e9-4290-ac29-9b590c3dc765,7297 Kim Drive,California,94913,United States,US
99569022-addc-4763-a146-214f005589e4,3663 Heffernan Circle,California,90005,United States,US
aafa97d4-6c5f-47ec-9793-dd7732cb3adb,7 Parkside Park,Illinois,61656,United States,US
d24a068e-2590-4041-a9ed-d483219750d3,826 Hallows Center,Louisiana,70810,United States,US
b0e5b81b-4abf-4bd0-a88a-9f2de7e94492,44996 Mandrake Parkway,Virginia,23285,United States,US
b5d6159c-60ad-4cd5-b816-7068d3f600c2,9 Golf View Terrace,California,95108,United States,US
0af5b5ee-60ef-4f74-b96d-7e85fed32e6f,1 Montana Pass,Rhode Island,02905,United States,US
f2682c15-dc30-4516-8d38-cf15bfbf600d,3677 Morning Road,California,92191,United States,US
39b0c403-d735-43de-b2f5-bdc39f9cdc2f,057 Del Sol Hill,California,93407,United States,US
ac364aff-4ffb-4bb0-8bb4-78682088d48a,7 Lakeland Circle,Virginia,22405,United States,US
ccf9ca03-f01a-4826-a098-a7c4bbf597f6,1019 Stoughton Park,Florida,33134,United States,US
57ec3319-1d19-4e67-8b27-4cd1d517aa69,15052 1st Plaza,California,92410,United States,US
bebad3f1-9632-41c0-a957-9264bd73fcf9,5463 Cardinal Lane,Kentucky,40586,United States,US
d67fe121-1284-4284-b1d8-8ad223e3b11b,13092 Russell Place,Illinois,62756,United States,US
ceb24209-44c5-41e4-a6be-3646f90b2166,3 Dennis Circle,Georgia,30351,United States,US
5437e4c4-2b6e-4c52-baaf-775b04ade816,8188 Bonner Court,Texas,79705,United States,US
822283dd-266b-4395-a334-b7356fc2d7ec,4 Melby Center,Virginia,22212,United States,US
1621199e-b928-4553-8ee4-9a031c86a1b4,91 Burning Wood Road,California,95354,United States,US
eec641f4-81e1-4232-9b2f-b4d2beec8757,6 Maple Wood Center,Florida,33913,United States,US
01f816f7-1831-4a73-93c1-fbfb9aa7e42f,93 Arrowood Street,California,92145,United States,US
d48681c1-5fc1-4d50-9f63-742994d7aeb2,73 Lindbergh Street,Texas,78754,United States,US
b5c38ed8-0ce8-4dc3-93a0-ec0005bfc3f0,2 Iowa Point,Kansas,66105,United States,US
a4e4c319-3448-4f21-a86d-738224085509,88824 Roth Trail,Georgia,30911,United States,US
dbc7e9d0-8141-4ec8-928a-f5947004cc27,74785 Becker Lane,Florida,33129,United States,US
0132c362-da53-4e60-b82b-d7a6142dd1b8,749 Mcguire Park,Texas,79994,United States,US
483a21a7-d680-434b-9504-69f77101f436,71990 Armistice Point,Louisiana,70836,United States,US
3d08813a-cf66-429e-81dc-0f8c741c5e92,1 Becker Point,Mississippi,39236,United States,US
23e98167-cf24-4923-9dd0-8f9fdf16060c,7723 Mifflin Junction,North Carolina,27150,United States,US
25ac2ae4-2147-4a30-b7db-c73a68f6a31b,57429 Weeping Birch Plaza,New Mexico,87201,United States,US
991423d6-990a-43b9-a200-83332081b6f7,4 Fordem Terrace,California,94660,United States,US
9e04fd36-953b-448f-a47a-89c1bfa9aa75,1006 Gulseth Hill,Texas,88546,United States,US
7ad34980-8da0-4048-b5fc-7ebc7d7c3f77,0777 Meadow Vale Plaza,Nevada,89155,United States,US
2e56391e-6395-4d22-8e01-8a6f145b3fb2,76345 Kedzie Pass,District of Columbia,20299,United States,US
faa4f95e-aad0-4014-97d2-8c3f5de43c82,74 Lakeland Alley,Colorado,80995,United States,US
2b14050f-4adc-4f9e-b84c-608bfa087623,6 Fremont Street,District of Columbia,20260,United States,US
7704b21f-9ab5-4c96-88d1-7848efc5bd25,267 Trailsway Place,Oklahoma,74116,United States,US
83a0445c-b74a-4624-8a20-2f9a3b449d8c,6 Thierer Junction,New York,11205,United States,US
f2948f9e-b634-4825-8089-4509dde7db7b,6 Bunker Hill Pass,Ohio,45419,United States,US
509da792-c0d2-4ec2-8727-8a2c01f515d5,889 Dennis Junction,Florida,33124,United States,US
ff558386-bd32-404d-b6ac-4707fc6ccb29,5 Anhalt Lane,Oklahoma,73197,United States,US
e5222705-5386-4f45-bfb7-f8c02a497be6,093 Mariners Cove Alley,Ohio,45233,United States,US
e1ee5537-c31f-4537-98d4-e9d98bf9d665,7012 Raven Parkway,California,94110,United States,US
1b5520a1-a256-4369-85bf-f3c1c74ee459,166 Hermina Plaza,Texas,78230,United States,US
fcfd28d9-e910-4631-ae36-53eefa0d7169,49 Dunning Trail,Maryland,20910,United States,US
33f32f11-74b9-4251-908b-c0a743d15558,49 Oak Valley Hill,Virginia,23277,United States,US
2241532d-03c5-4f44-933a-e92c98c87ac6,92883 Crest Line Alley,Washington,98127,United States,US
dc3419f6-808e-462a-98cf-3937d42e7750,7875 Carioca Crossing,California,92405,United States,US
e88fa238-e1b3-4b69-ba9d-82ad61c7f7e6,60938 Burning Wood Park,Oklahoma,74141,United States,US
b477425e-0dda-4905-aefe-71b1165352c1,1819 Gerald Lane,New York,11247,United States,US
66c4b775-4367-427b-8338-ada522453e0f,17413 Caliangt Point,California,93762,United States,US
34bd0d9a-2d76-4e9c-98d8-2672b23af20e,0022 Sheridan Lane,Colorado,80270,United States,US
5d9db706-2ea8-424c-acc7-4f4b6235e65e,9 Commercial Place,Ohio,44321,United States,US
2d9d5fa7-4735-467d-9068-6d2c48ede7f9,53 Oneill Avenue,Montana,59771,United States,US
1400f001-e8b5-4f95-b118-92abfdd67ef9,78 Macpherson Way,Missouri,64199,United States,US
4b235844-79bf-4662-81ef-8d41a5934fce,0 Butterfield Trail,Maryland,21281,United States,US
33d14327-aec5-4a2a-a566-32a6d159e9b1,27 Arrowood Trail,District of Columbia,20268,United States,US
0f8024a9-505a-40c1-baa1-d54aaacba325,949 Northland Plaza,Ohio,45408,United States,US
f48a8bfe-b73d-4eab-989a-4f0b6e77547c,645 Summerview Hill,New York,11210,United States,US
0fd2be5f-3fe4-4d0f-ad52-8d327be7048f,66646 Mosinee Lane,California,93291,United States,US
6ed7b38f-f0de-4ab4-a7ca-c23f7d1e8c4f,358 Sauthoff Parkway,California,90810,United States,US
9b1e3638-2602-4142-bfb1-801fd26c0fcb,4003 Sutherland Circle,Mississippi,39305,United States,US
a514321d-26bd-4d42-a067-3d9d538a51fb,200 Moose Drive,North Carolina,28289,United States,US
6f2131f8-c88a-4aa3-9977-fc2d92afbed0,534 Quincy Circle,California,94257,United States,US
d4123cc7-4e2c-4d9a-8cc7-21e01f1a9f2e,38 Kingsford Place,Michigan,48242,United States,US
221471b7-0baa-4b44-af0e-594d1cb08400,3 Burning Wood Park,Iowa,51105,United States,US
57c99e12-25ce-46c9-8e96-d20d03ce8ac9,898 Spenser Lane,New Jersey,07195,United States,US
aed918fb-6838-4cd7-a379-521cb4d26c5c,8948 Ryan Crossing,Virginia,24004,United States,US
30dfac01-37cf-493d-8745-4dfedacea06f,0933 Dakota Place,New Mexico,87115,United States,US
2191acbb-c0e3-4e6e-8efe-7ae5ae238bec,3370 Loftsgordon Pass,Florida,34985,United States,US
202bb913-860d-49fd-8dcb-720c30663257,2 Mcbride Junction,Texas,79916,United States,US
c62bffc8-6bd8-4a4c-a3f3-d38884a704eb,025 Heffernan Alley,New York,10110,United States,US
3f6ce633-1ecd-4605-bd53-af208f93d142,019 Redwing Center,Virginia,22225,United States,US
0685222a-4527-4f48-ad9e-9e1168383798,127 Lunder Avenue,Alabama,35254,United States,US
b373c0e7-45b0-4247-9184-e28a046cd199,61328 Oak Street,Kentucky,40233,United States,US
619d1ae8-0d24-47b0-a386-f1fbfa45b94c,5047 Atwood Way,North Carolina,28314,United States,US
d98a1fe8-c178-497d-8ea1-6b7dec5f9b4a,4 Reindahl Road,Hawaii,96825,United States,US
7e46a2e5-c1ec-45fb-a609-8c9cd7facd41,48 Bartillon Drive,Texas,75221,United States,US
c3154edc-7d8d-4727-910a-0d4101ca8880,3 Oneill Alley,Mississippi,39305,United States,US
e26f048a-b7cc-47c9-81e4-8c6432d503f8,49 Fairfield Hill,California,90310,United States,US
0d4c7d68-4126-46c6-8583-6ab545d98340,1495 Jana Court,Texas,79769,United States,US
b26d6e4f-83ce-4dea-b476-ee1cf8427b00,871 Golf View Place,Connecticut,06520,United States,US
60ee9e79-54e7-4f72-b5f6-86de56858dc7,9 Sachtjen Point,Mississippi,39305,United States,US
deaa139d-2935-4dc6-8e3e-0c87f02fbb3a,18 Kropf Crossing,Pennsylvania,16510,United States,US
2af85f18-8cb2-42d0-bf32-b35687c2a8ca,82673 La Follette Street,Florida,34615,United States,US
59d15577-c5a2-4f9d-a606-9fc1e183a694,6 Vernon Park,Pennsylvania,17605,United States,US
edcaad6f-8540-4975-9b23-4146ff2b9e15,6 Hoffman Road,Georgia,30905,United States,US
06431700-dc54-4f30-ad04-42188bf60b37,8 Elgar Drive,Minnesota,55115,United States,US
7e0da099-0f3b-4c1b-90dd-8a8616373390,21828 Fisk Parkway,Massachusetts,02163,United States,US
fb150af4-b929-404d-8bef-34b3eade38c1,52300 Nova Junction,Ohio,45208,United States,US
fa52d634-7f70-4c59-b599-087f7b1e9918,39440 Westerfield Road,North Carolina,27455,United States,US
7a128f24-e6e2-4720-aa24-ac79d6b741c4,075 Lake View Alley,California,90005,United States,US
7521af4c-3aa6-4a3d-8f65-1c01c4ba45ee,3916 Pleasure Circle,New York,10131,United States,US
8c86f4a1-99e8-49cb-b39c-219247369faf,76063 Garrison Trail,Oklahoma,74103,United States,US
39654f93-9538-4695-955a-efe10854e96c,346 Kingsford Point,Texas,75265,United States,US
17fb3208-8968-4509-8a58-198167517c9f,4 7th Center,Texas,77806,United States,US
392d173a-8809-4da5-bc94-6b984541205d,9 Pepper Wood Circle,Missouri,64082,United States,US
e42d37e5-02a6-435b-a1a8-be23e6fad556,998 Rockefeller Terrace,Indiana,46814,United States,US
000af06a-eff9-47c5-8825-3246f9f2b07b,32687 Lyons Drive,Illinois,60697,United States,US
aa4abd59-d540-474e-bd69-4f85fb8a503e,6825 Lakewood Way,Florida,33169,United States,US
43aa7e9c-cd86-4b9e-a2c0-bfb861fbeda0,8213 Carey Center,Missouri,65218,United States,US
09e28a9d-9f0c-4ae3-a3be-6853a8e07e4c,3 Magdeline Place,Minnesota,55402,United States,US
79075663-69ea-4b80-bef5-568d201c7d6e,72 Bunker Hill Road,Illinois,61656,United States,US
8f306cd2-6b8e-4351-b533-159abcfbe30b,86 Homewood Alley,Florida,34276,United States,US
ac64abb3-4d15-4935-8a20-a6a499349649,2893 American Road,Florida,33610,United States,US
1a5eaabf-07de-4fe4-ac36-4a775aa0f0b8,8 Bunker Hill Way,Alabama,36670,United States,US
5ba9ee7a-14d5-4ff0-afd6-538641e752ba,06 Gina Drive,California,92153,United States,US
70caa647-9ad4-423b-b035-becdbbd61c84,733 Burrows Hill,Pennsylvania,18505,United States,US
8e04e752-aec0-4662-b6de-32983e8be25e,29 Hauk Junction,Texas,75287,United States,US
b13f3a90-9392-4e73-bc8a-7b9cf10763a7,0516 Mosinee Court,Texas,76544,United States,US
960e02e3-19b8-46e2-b043-68df64605f48,235 Dixon Plaza,Oregon,97296,United States,US
ec47b913-9e31-4ac9-b8af-2e398729883b,27 Bonner Terrace,Ohio,43610,United States,US
ac3c601a-770d-4672-86fd-510493a54be6,1859 Stoughton Parkway,Virginia,24048,United States,US
fad5d208-2e72-452a-9d5e-aa891e2017a6,4 Brown Road,Texas,79452,United States,US
6f27fb0d-1713-46ed-a439-c288d8c05455,8 Harper Hill,West Virginia,25331,United States,US
f7fedb21-27a3-4dbf-852f-8e9cf9f309c2,274 Mcguire Road,Pennsylvania,19131,United States,US
41f807a5-c0b9-47b5-aa1a-ac8113e5899d,63936 Mccormick Point,West Virginia,25721,United States,US
df0d2c76-58af-4a4f-b425-568e018866d0,7394 Schurz Alley,New York,12262,United States,US
d9f54f60-0611-4386-be7d-8f7334a57116,1463 Sheridan Hill,Texas,88574,United States,US
2d4a1ab6-84f7-46f8-8c72-c263f6ab4362,6034 Mosinee Hill,California,94169,United States,US
e892369f-8217-4032-88c6-4722c7538f2a,3078 Cody Trail,New Mexico,87180,United States,US
9405de9c-e933-40cd-bf95-6de2e0c00830,94 Kenwood Pass,Michigan,49018,United States,US
1bc3a00c-a3f7-4972-b5ca-71085ba6b53a,6 Laurel Street,Texas,79188,United States,US
c506d09d-4dfb-469c-85e1-ae698bfed076,724 Heath Center,Texas,78710,United States,US
49006775-53a4-4a41-93d9-95e5840a9bdb,683 Rowland Alley,Indiana,47732,United States,US
dd0073ae-6cdc-4385-aaf1-4b5c8f649305,966 South Way,Louisiana,70187,United States,US
e4f59fe6-332e-4197-b00f-75102ae38cec,37 Pond Road,District of Columbia,20041,United States,US
f3615471-fd99-43ec-8117-cb4dd53f1bb5,93383 Fordem Way,Michigan,49018,United States,US
799f96d1-ead7-48aa-bead-7f2e29c32c56,7086 Debs Crossing,Washington,99210,United States,US
cff5ba14-8479-44b5-aefc-f575f2533153,35360 Burrows Street,Texas,78240,United States,US
43a75113-6159-493f-be26-c89322e3a986,38256 Buhler Terrace,District of Columbia,20016,United States,US
6755165a-b0ff-4084-ba32-d30d88789ec4,13543 Pine View Trail,California,95150,United States,US
1076e6e3-d379-4512-bfe4-dfb6e2bbf522,400 Kingsford Way,Georgia,31704,United States,US
497611e9-9472-4858-aa8f-9f599b7d0ec9,6 Erie Terrace,Utah,84135,United States,US
35f4918f-dba7-4b80-a1d9-8cecd1285394,62 Jenifer Street,Oklahoma,73114,United States,US
35ed950b-c825-4ff4-aeec-45f8373e3a06,3 Garrison Drive,Pennsylvania,17405,United States,US
21d3a531-e2ec-4a3b-8756-8b711410eaff,34 Buena Vista Court,Florida,32412,United States,US
fe2b4c75-ec02-41fc-9520-a4062d71be93,54396 Homewood Trail,District of Columbia,20409,United States,US
963ec62b-a30b-4367-b4fb-a9dbc44ff934,8 Redwing Terrace,West Virginia,25716,United States,US
aabd0877-a8b7-4726-9ec7-85cc56dfd325,49463 Randy Circle,Texas,78737,United States,US
7d80193d-010f-4f92-8925-65c758129f86,5 Kropf Avenue,Alabama,36109,United States,US
1f45ad8a-bfeb-44ba-8102-aa1d9edac77e,41119 Sycamore Street,Texas,76210,United States,US
52b7a059-f65f-4d66-aea0-f0e78818c123,2771 Namekagon Point,California,90060,United States,US
5bbe57b5-02e6-4f64-bcbc-1258a59be6a2,07 Melody Circle,Missouri,64125,United States,US
1031b2b9-c72c-4162-be55-953212b96332,1 Northland Junction,District of Columbia,20022,United States,US
53c9daa2-b5c5-4172-8022-d9e45d309c0b,32149 Sutherland Court,California,90605,United States,US
8a7a7733-9e51-49c1-b8d2-cd19fa9dd167,55 Steensland Way,Ohio,45228,United States,US
cb083320-35f0-49bf-ab2f-4d4ad9f29c8d,7876 Walton Pass,California,93005,United States,US
b9e55c3e-1b1d-4452-9ac5-225549b4cc67,0 Michigan Pass,Illinois,60193,United States,US
d0dfce24-66b5-4627-82a2-ecfd92916aaf,16894 Daystar Crossing,Ohio,45218,United States,US
93c80db2-3a4a-41b8-8a05-38512a15e18d,16967 Glendale Plaza,Minnesota,55127,United States,US
53a04d4d-5e17-4bfe-ad74-e0d1cb28c0d1,280 Debs Hill,California,94622,United States,US
d5b91595-6c8f-4d7a-a3ee-bf0d7069adda,410 Holy Cross Court,California,94405,United States,US
ebc246b7-44d0-41a1-90c1-b7b0efdabc9a,4733 Maple Alley,Virginia,22309,United States,US
4fd75c65-ca98-436e-8daf-370d9137b6ba,6 Meadow Ridge Circle,Arizona,85062,United States,US
1f315e6e-2002-40a0-82c2-cd65b2ce25a5,803 Delladonna Crossing,Arizona,85072,United States,US
81d9e2df-18ea-4aaa-9c2f-0fb1cf75e779,5 Cordelia Terrace,California,90040,United States,US
a9b26e8f-7d54-4066-975e-c46c9a45da2e,6 Northland Center,Illinois,60193,United States,US
d38413e0-bf8d-470b-b2d1-f5798a378dd4,118 Bluejay Circle,Pennsylvania,16107,United States,US
487c5e4c-5150-42c9-96b6-c64d399fa65c,24356 Stuart Avenue,Georgia,31106,United States,US
06c559f0-ed98-4531-afd1-746edc6d8c47,87629 Main Junction,Oklahoma,73109,United States,US
75ee86e3-e208-4a8c-8b74-72f6e4eef5e6,8 Melby Plaza,Florida,32835,United States,US
cddb9531-6fec-413a-9adc-4279964c5c20,4 Dunning Circle,Oregon,97075,United States,US
ec5f8cf8-1ecb-4358-8f99-b589df4ca04d,07 Troy Place,Florida,32309,United States,US
0213fef2-e38e-4963-898b-951c33512144,4479 Porter Junction,District of Columbia,20062,United States,US
539f60b1-1485-4f04-a526-29a0e71f10e5,5147 Mccormick Alley,New York,14205,United States,US
9d4d6924-8f6c-470e-8cc9-e8e757e3b731,75 Steensland Drive,Washington,98411,United States,US
c3e81cc3-7c88-4e85-8232-bc1c98ffa0af,6823 Tennyson Pass,California,91109,United States,US
d19f8692-2ab9-4bf5-9bcb-9416553f6583,80814 Kensington Terrace,North Carolina,28410,United States,US
47b75d85-ace2-4bd5-8d25-c5b5fd800da5,0607 Maple Alley,Pennsylvania,19146,United States,US
790f1558-3be9-4ba0-9b5c-a55370e885f7,76683 Melrose Drive,Louisiana,70179,United States,US
9b84d68d-26c5-43d2-ba5a-456180c8c996,11 Red Cloud Trail,Texas,88553,United States,US
05556fa9-6182-4f37-ac94-4dbd9110fdd0,93 Cambridge Court,Indiana,46814,United States,US
2c21e09a-801c-4927-94fe-398ba4692495,53472 Weeping Birch Alley,Tennessee,37605,United States,US
99cdf8e7-05ab-45ef-a58d-fda11773df68,37850 Rieder Plaza,Michigan,49505,United States,US
18917fa1-c9d5-43a4-8646-343ecc8700a0,42 Jenna Pass,District of Columbia,20057,United States,US
43d79f73-6d10-4204-9a27-d238179d42d1,7279 Hoard Park,California,95054,United States,US
b2a59955-0481-40a9-b2fe-385c89c30a40,508 Kenwood Crossing,Virginia,24034,United States,US
a0ff31f1-1731-4167-beac-dac1454dae84,60005 Dorton Circle,Nebraska,68164,United States,US
59f6c7d4-997f-4af0-a580-691e0be0e14f,46040 Dexter Avenue,Pennsylvania,16565,United States,US
c10c235f-62cc-4d82-af13-51305c22ac2a,13 Sachs Lane,New Mexico,87505,United States,US
7f7f499d-65bc-4bf0-bcc7-a462a472f091,6747 Judy Alley,New York,10469,United States,US
7627be88-7557-4335-8701-2d27e5adbfa4,72642 Glacier Hill Pass,Florida,33111,United States,US
6e403945-9e5a-473c-99f1-6b494f7b43d5,834 Hintze Plaza,Texas,76305,United States,US
18ea101f-8b0c-47d4-b9f9-6b1e6ec43149,3 Fordem Point,Oklahoma,74156,United States,US
30f5ae73-f492-4528-bd7e-699b97b7f2b6,4 Namekagon Alley,Connecticut,06922,United States,US
aa49acf6-e02f-4236-a851-6573bb30485f,0 Ridge Oak Pass,Tennessee,38136,United States,US
2bedec45-206d-47c6-965d-b73e65558b22,52813 Corry Lane,Tennessee,37131,United States,US
d8bec53d-7bc5-4fd8-a5b2-bfc33be840b6,9 Doe Crossing Place,Nebraska,68124,United States,US
5fc384a8-69e6-4551-829c-fa1c63d77eed,90 Towne Alley,Virginia,24040,United States,US
b6d6d757-a36a-49ba-8bbc-3d243694dd1d,80 Delladonna Center,Arizona,85754,United States,US
4f62cc66-64a0-4abc-a34a-01932fbc001f,03851 Bay Drive,Indiana,47134,United States,US
32d0d7c7-bedd-4562-b861-778cea7b9315,60749 Jackson Lane,Massachusetts,02472,United States,US
838818b1-967c-4f81-9ba5-bc7337b337af,76 Warrior Hill,Florida,33325,United States,US
4a45ac0a-86f4-4762-b18e-24c4c2c8ace9,60947 Prentice Street,Ohio,45470,United States,US
d80d5034-75bf-4ed9-b84d-8ca51ad04ba9,4 Sloan Drive,Tennessee,38161,United States,US
58f264ba-5b27-437b-b890-db0e3c6e23b3,612 Moland Place,Michigan,48211,United States,US
9d5090cd-c1bd-4ee8-b8eb-59426979a0cf,57943 Mariners Cove Crossing,Minnesota,55441,United States,US
203637bc-1ece-42c6-8d71-0978eb53a5be,603 Onsgard Center,Arkansas,72916,United States,US
1e419387-6913-4da1-95df-bc3f57f8e737,63 Karstens Place,Illinois,60505,United States,US
bad50f43-bd43-4e34-83c2-2390798c3813,2153 Lindbergh Crossing,Texas,77025,United States,US
8a2177da-8405-4ca5-8680-a246dd80b130,89309 Shelley Alley,Pennsylvania,19125,United States,US
90c13a20-ea25-4856-af6a-6ad4f964b359,7247 Red Cloud Court,Texas,77020,United States,US
2fd7eb94-1b01-45ef-b5cc-b43e2c807b66,185 Kensington Crossing,Illinois,62756,United States,US
b3d5eedf-23fc-4753-a197-0a48e4d7b7db,5 5th Parkway,New York,14614,United States,US
ac3dcd33-22b4-474e-90f9-258f431acc44,249 Stephen Court,Iowa,50347,United States,US
91d9a161-0c3d-4461-85c9-c1621c045c6f,93333 Anhalt Alley,Illinois,60619,United States,US
f93eed91-8c82-4a6b-8761-e9b24ec85d12,0 Dakota Road,North Carolina,27150,United States,US
a319f6a8-5dd4-4b14-8e2e-1ae0da677df7,0157 Corscot Center,Louisiana,70505,United States,US
d4528b45-477e-4c0b-9a0e-c655fe4a98e4,133 Cherokee Drive,California,92725,United States,US
4d494231-d4d3-43ed-8ecf-04f1055f7a91,6 Cascade Park,California,95219,United States,US
350d2c94-abef-425e-a9d4-9883507f4745,166 Bonner Hill,Texas,75277,United States,US
121ce881-6073-4cb4-80e6-fdb8b6e0d4ea,356 Weeping Birch Alley,California,93094,United States,US
c70ab87f-ce69-4169-a935-6e16060f0e11,26 Nancy Terrace,South Dakota,57198,United States,US
d7a9bf6b-3696-40b4-a509-211d85a3c177,31394 Kedzie Way,Washington,98148,United States,US
f7da8a7f-93b0-4a92-ac97-89d68c0028e2,8 Fair Oaks Street,Minnesota,55565,United States,US
8ee864bc-e264-4ea1-a43a-2d972c791d7b,1 Del Sol Trail,Pennsylvania,19104,United States,US
38c2e4a1-2162-41db-bf85-d04aac990e9a,4134 Towne Hill,Indiana,47805,United States,US
010e6e2e-ee8a-4c20-ab1e-b00012baad43,32902 Truax Parkway,Texas,76178,United States,US
b79917d4-0df1-4438-9acd-a2e50bbe4492,74 Thompson Way,New Jersey,07522,United States,US
884d6482-3a36-4c22-84d5-e168b2b32450,6151 Surrey Trail,Massachusetts,02298,United States,US
33046745-11d5-49cf-a600-157eeb2bdedf,192 Dryden Center,California,95298,United States,US
54bfbb08-f5e1-4732-8a9e-94bd8db5efe7,310 Goodland Street,Washington,98109,United States,US
81c585ed-c824-4753-9877-051b81789596,228 Trailsway Terrace,New York,11436,United States,US
463ec170-24af-462b-a94a-ccd987e9021f,3924 Roth Way,Washington,99205,United States,US
cb138899-1d48-43bd-9306-bf5a3a227721,8 Brentwood Point,Ohio,45264,United States,US
583c43c8-52b2-401c-8f74-b7dc0c60765e,5 Dakota Terrace,New York,11355,United States,US
f24fa13d-409e-465c-a4ad-da5cf9a9bc45,359 Hollow Ridge Terrace,New York,12222,United States,US
552d6812-0f73-4438-aa29-3e1b226b7ae0,58 Mitchell Drive,Colorado,80161,United States,US
e095627c-63e4-4b93-98aa-6340bc6f4554,7770 Dawn Alley,Virginia,23454,United States,US
45835876-59a8-477c-916e-d5a96493549c,0055 Meadow Ridge Way,Texas,77705,United States,US
c20889f4-cdd4-4570-a42c-102a50ccd7bf,138 Reinke Trail,Missouri,65211,United States,US
56dd873d-033b-474c-9000-de8d5de8463a,5 Carioca Road,Texas,77713,United States,US
2eb21b8d-ae31-4b05-b29b-4e71f6e8c6cf,25 Hintze Lane,Kentucky,40293,United States,US
3e904112-b7ad-418f-b028-ea398d117fe7,1 Beilfuss Circle,Pennsylvania,17405,United States,US
08b81ebb-8637-4450-87dc-2000a948591d,2229 Muir Point,Ohio,44393,United States,US
d547fa36-2442-4ecc-a863-e7f42091b9fc,0 Ridge Oak Lane,Arizona,85255,United States,US
f47d876d-3363-4025-9f7f-09fb3bb818ac,6996 Pennsylvania Trail,Texas,88514,United States,US
8b79a0f9-08dc-4de4-9f4c-37744ad09c54,356 Crowley Point,Colorado,80910,United States,US
66c678de-721d-410f-bc0b-bde01c8ce680,26 Columbus Pass,New Mexico,87201,United States,US
bc61403b-7b3d-437e-945b-53b98f500f3e,4 Bunting Terrace,New York,10150,United States,US
63e2a17e-bc10-423e-87ab-064af599c951,01 Prairie Rose Court,Texas,88514,United States,US
9ed26339-3133-42cb-b34b-3312b7425f07,2107 Straubel Park,Iowa,52804,United States,US
f0d0cb88-7923-42db-89ff-615f5b00d347,32818 Novick Pass,Arizona,85205,United States,US
23310ef0-4a4b-4078-aeee-aca773fe166c,15592 Utah Point,Massachusetts,01654,United States,US
f25f4e5a-cfa0-4eb4-bcbd-cdbf9fab5347,801 Merrick Lane,California,93786,United States,US
610431e6-4cd1-4e66-b6c2-a1494ea5590c,2 Sage Park,Mississippi,39305,United States,US
168487a1-9fda-4ebb-9423-8c08bf16b918,14 Cambridge Way,Kentucky,40287,United States,US
ceca7392-e904-4773-a2be-082165d40b4e,284 Melody Trail,Colorado,80279,United States,US
225e4ff5-3b8a-4294-86d1-86fde53dd615,702 Northridge Park,West Virginia,25313,United States,US
f7793f41-925f-4638-898b-ad26c422df0a,4 Debra Circle,Washington,99205,United States,US
c8ab3015-dd08-4122-b590-102b0742fd9d,81 Sutherland Alley,North Carolina,27626,United States,US
17acef1a-3af9-4b9b-ae79-db380ad299ec,1 Michigan Junction,California,90055,United States,US
654fe8b1-8fda-4242-b5b1-8dd21b285daf,22 Sunnyside Lane,West Virginia,25305,United States,US
9edce45f-ddcf-494c-8851-e4d0a265b0d5,589 Ilene Point,Nebraska,68144,United States,US
83d2eb31-cffa-4c73-86ef-50256d835259,8 Judy Way,Ohio,45403,United States,US
e26bb107-5b87-4c4a-a1f2-0b857e4c1350,13150 Autumn Leaf Hill,Hawaii,96840,United States,US
c706f920-beba-4a9c-874e-df95deb0ed7e,87 6th Alley,Texas,79977,United States,US
acaa2337-9939-4959-846d-92d86be776f3,351 Lunder Alley,New York,11436,United States,US
a95e115c-9a62-41c0-b555-69de0a3b6daf,780 Browning Pass,New York,12242,United States,US
6f163bcd-7a61-48d1-9182-29fe60c8d9ef,27 Miller Circle,Wisconsin,53779,United States,US
15b99cba-08c8-4804-8d4d-16ab344f8dbb,0532 Service Lane,California,93794,United States,US
52e5fc56-74b6-4f7e-abee-fb4fad85d238,88 Shoshone Lane,Texas,75037,United States,US
0921ca9e-9bfe-4775-80a4-d6990afcd421,2 Shasta Junction,Arizona,85246,United States,US
9cb2a21b-9a49-49dc-85d3-64cc374a9351,6 Northridge Lane,Florida,34238,United States,US
5469f0d2-a84c-4a04-929c-fc5a2b9dda79,6250 Duke Trail,South Dakota,57198,United States,US
94c98398-b778-45b9-889e-5abb176032f4,1575 Hoepker Plaza,Indiana,46247,United States,US
ebe8b228-7a33-46f3-b51b-0098d0a50ac0,90477 Esch Park,Louisiana,70183,United States,US
33c76353-d0a8-4b6c-8694-d93a4eeac82f,9734 Loomis Alley,Florida,32891,United States,US
6326b7ea-567c-4064-944e-29dc0961dd45,95666 Ramsey Road,Michigan,48217,United States,US
4dde2751-250f-42e8-aa71-d3278f0bc528,396 Northridge Court,Texas,77015,United States,US
5226c4da-0730-4517-9829-bfa02e7365e0,45 Larry Place,Illinois,60604,United States,US
88a15cfd-9269-4ea4-bd8b-f5559d93b1cc,9935 Hazelcrest Trail,New York,10099,United States,US
989b8984-8fb7-4877-a609-ec48b793c2d5,608 Anhalt Place,California,92640,United States,US
a571ff93-b4cc-4507-b365-71955f0f64fc,414 East Drive,Texas,75605,United States,US
9feac909-4b23-4cd4-904a-2540d3e7dd10,3 Hanson Drive,Tennessee,38104,United States,US
27f346cb-ce24-497f-a522-35a6d5bb4b60,4 Mandrake Junction,California,93709,United States,US
84a5f19a-4f83-4179-98b5-3aa4ffc05ec7,1 East Center,Florida,33694,United States,US
b848628c-656d-44fa-bde0-be69344a6575,380 Northwestern Road,California,90605,United States,US
5d8dc4ce-04bf-4fc0-a6ac-ec3f6bf05030,8482 Ludington Way,Virginia,23242,United States,US
746ff819-d75b-428c-8677-7b9b78464cf1,8 Stang Road,Minnesota,55423,United States,US
d06e9a68-ea69-4517-9a76-cebdc4b6baac,241 Elka Plaza,Tennessee,37939,United States,US
421ab9a1-e2a1-4115-80d8-cec5ab766079,9665 Bunker Hill Place,Ohio,45403,United States,US
580c9638-6b0e-4e13-9e0e-7ae9d406a785,783 Manufacturers Drive,Texas,78296,United States,US
b8af96e5-5fa0-421a-a27f-227f493cfacf,1020 Laurel Drive,Oklahoma,73104,United States,US
a31c0528-3773-47ee-ab61-75d200db98c3,876 Center Junction,Massachusetts,02453,United States,US
7011178b-befa-466e-8d2f-2fa6b4b213d8,0404 Oneill Street,Florida,33175,United States,US
f74232b5-0ca3-49b1-a08e-79bca66c0509,0837 Golden Leaf Point,Massachusetts,02453,United States,US
cfe38aa4-bc32-4f83-bb4d-b70e870f5a62,94549 Dahle Park,Missouri,64504,United States,US
09540f9f-30d8-4aa3-9f44-e71c1abde403,3 Thackeray Center,New York,10019,United States,US
a24569f3-9708-46f4-b8c0-a302b30bcd97,33904 Kipling Center,Georgia,30061,United States,US
2a7bc6f7-b06a-4695-9727-60860a477ed6,1234 Red Cloud Lane,Pennsylvania,16550,United States,US
dab6b9d9-4c97-48f7-b3e3-b92f93c7ae8d,9213 Daystar Alley,Pennsylvania,19093,United States,US
96440e3f-37e2-4de9-845e-0502cdc8376d,17621 Rowland Junction,Washington,98411,United States,US
61788a5e-d0eb-4262-a258-ea33932adc96,9 Linden Junction,California,92555,United States,US
72371784-4c44-4e96-8c36-7473139cde25,810 Bowman Drive,District of Columbia,20016,United States,US
e595b49a-20a7-48f2-8c14-eb2135d3c100,134 Loomis Drive,Texas,79188,United States,US
5fb6efb9-b63d-4b21-b98d-244f8a7a47c1,803 Ramsey Street,Connecticut,06145,United States,US
30caa2ce-6a6e-4381-a265-1b484397a3da,71830 Warner Junction,Washington,98664,United States,US
75c39c66-5d3e-41a5-8008-24e8fd1439b8,0885 Arapahoe Center,District of Columbia,20404,United States,US
37f2dd30-a88e-4c53-8d75-86e8458acd1a,87 Lighthouse Bay Road,Oklahoma,73157,United States,US
d2b396a7-eebd-4d31-a6a9-9f9f763182bc,8 Golf Park,Oklahoma,73109,United States,US
33e02dfc-1295-4c3a-9316-42459359b6fc,802 Heath Drive,North Dakota,58122,United States,US
1f9052e7-68d6-4d2a-bc9b-5ee565337df2,62005 Burning Wood Junction,Florida,33190,United States,US
d6b43e9e-176c-476d-93c0-666825d58a09,02745 Ridgeway Parkway,California,90510,United States,US
ca984b5e-ae51-4436-bada-687d296df8e3,5 Hanover Road,California,92640,United States,US
f8a7c9d4-cb98-49e8-bfec-83f6ab4eb511,7945 Novick Place,Hawaii,96845,United States,US
d915e257-e613-4cc1-a4ce-cef3a164cd4c,5 Lake View Crossing,Michigan,48930,United States,US
c450f9c4-fd32-43c7-be38-13f3ca7f8985,3242 Kim Hill,Mississippi,39282,United States,US
d32bb078-2037-4054-b938-c7605e050ea2,30 Little Fleur Center,Arizona,85005,United States,US
50097a7f-9502-448d-8568-6df5278d882c,47727 Dwight Alley,Pennsylvania,15210,United States,US
5836b017-796a-419c-8f5a-a3c1c16be701,0 Vidon Pass,Colorado,80005,United States,US
bd04857e-5c03-42e0-a2f7-1282687e7d1c,97154 7th Pass,California,90025,United States,US
d9ef47dd-0065-4a87-b30b-b324db1a30a1,7814 Merrick Point,Florida,33758,United States,US
6577a107-634a-484a-9472-b25f35cc51cb,1 Pine View Circle,California,93726,United States,US
329dc8eb-4dcc-4cd8-91cf-869f15926ac7,65794 Magdeline Park,Texas,78278,United States,US
e76ce44f-2f50-4fc4-9be5-45d23c00ba02,4 Mallard Terrace,Pennsylvania,19191,United States,US
4c2a74f4-a4e4-417f-82c4-dc177c12372f,32919 Hansons Circle,Iowa,52809,United States,US
1370b816-46a0-4341-a32b-fb867a959820,71 Hanson Junction,California,95823,United States,US
c0efc18a-9ad1-483c-b723-93bb0fd70ec6,051 Huxley Place,California,92127,United States,US
53861f2e-6c15-42ee-af75-000162636baf,24629 Village Avenue,Texas,75231,United States,US
2f96d800-35fc-4dc1-b0c4-d9e3dd77a339,35 Towne Center,Kansas,67205,United States,US
9b3040fa-95ed-4a7c-aced-e319f2e28dda,4268 Heath Lane,Colorado,80638,United States,US
14ae98c9-b454-425c-95d5-392e372fc58b,5444 Moland Center,Texas,88558,United States,US
a76cbe01-6c38-4891-a3c3-b1fb907b6893,78311 Corscot Drive,California,92862,United States,US
20d6923e-1ae3-4332-8870-7e4b2be0616f,6 Sloan Plaza,Nevada,89706,United States,US
326cc62d-7a8e-4b64-86aa-b5123f9513a2,2 West Road,New York,10090,United States,US
b40b8868-2661-4b5a-b392-75412e9ac361,9 Merry Alley,Texas,77080,United States,US
bf25b3da-eb93-446b-b06d-a1fa61b35b57,63120 Stuart Parkway,California,94622,United States,US
47f90c17-c66e-42f2-a1bc-88fdf05a72e9,216 Park Meadow Court,West Virginia,25709,United States,US
1b2d7ffa-d978-4069-833a-7389cb4cf7ce,650 Macpherson Road,District of Columbia,20226,United States,US
70d69936-71ff-4c0b-909a-17e6c6cbf8bc,0504 Lien Alley,Louisiana,70183,United States,US
d8549d6f-11cf-4d6a-b695-07eb285d926a,9285 Hudson Center,New Mexico,87505,United States,US
8358f3ba-7c47-4587-9e40-c6982bc5dbc6,55 Johnson Way,Iowa,50315,United States,US
5d3e79b2-fb7a-4251-88ed-eab498e16d4d,56693 Anniversary Junction,Florida,32412,United States,US
2cbe5b3b-2e0a-4a48-b198-b15458239ef7,808 Cordelia Plaza,New York,11215,United States,US
a2203e37-b037-46f0-baeb-47b7eb69f5b3,294 Roth Avenue,Florida,33315,United States,US
8841ff13-29be-45ed-b0c5-a827eeda795d,23132 Graceland Plaza,Texas,77245,United States,US
b06f9372-47c6-4171-ba8a-de59f445ceef,78 Sullivan Hill,Nebraska,68197,United States,US
ab1cd84e-2baa-42d8-abf3-29d083f48ffd,131 Cordelia Court,Massachusetts,02453,United States,US
5d048b59-5816-4588-aef2-c3a71547721f,690 Comanche Parkway,Oklahoma,73104,United States,US
eff69ce8-7eb7-457c-8f21-39f879238b51,4 Brentwood Plaza,Florida,32123,United States,US
f076af71-7618-4374-bdcf-f404d8fdfd34,8 Gerald Street,Michigan,49510,United States,US
5ebfcb0b-9566-4821-8120-96420d600419,21545 Namekagon Circle,Colorado,80299,United States,US
a8311310-7e15-4a9a-8cd9-af856be71cf6,0527 Marquette Street,Florida,34615,United States,US
63778265-255a-4fc4-b3e5-f57e6241a3be,4494 Dottie Place,Mississippi,39305,United States,US
89852836-762a-434f-97c9-55256d102ea7,139 Namekagon Crossing,Colorado,80126,United States,US
22f7fc1a-6c20-4190-a140-e2629d748761,86 Petterle Trail,Virginia,23277,United States,US
4419b1c5-4db0-495d-b3ed-559d5b63db3e,269 Waywood Court,Indiana,46254,United States,US
749e5452-321b-4f20-b69a-7db9ca957d9f,563 Vermont Crossing,Florida,33777,United States,US
d4539770-2675-4695-8d8c-4462cfabc5f0,63 Sommers Circle,Massachusetts,01129,United States,US
475f58e6-2ea7-40eb-bbba-c78b3c009eda,59 Bowman Center,District of Columbia,20520,United States,US
045a755c-81c8-4f33-8dbe-9b1b4ed5b699,2220 Becker Road,California,95128,United States,US
65ea0257-52d6-47b6-b01a-3f729d0d784e,12 Mandrake Lane,Arizona,85305,United States,US
acf923c1-d7a0-4f23-9d21-92a3b4f21997,5 Hauk Park,Texas,77030,United States,US
382579c6-a1fb-462f-a4e7-15d3a273c1b7,5974 Mcbride Lane,Arkansas,72199,United States,US
5314e5b1-028a-4f67-8731-fc4af7b3df58,81 Pierstorff Plaza,Indiana,46634,United States,US
0a237c5c-fa24-4fda-bd8e-d18532ce137c,629 Monica Terrace,Texas,79105,United States,US
d955414c-1294-49b1-a5fc-8f91958935cd,53 Carey Way,Nebraska,68105,United States,US
7d1014e0-9429-4e32-82da-f2b70b17d44d,01426 Hermina Crossing,California,92056,United States,US
bc193fff-0f65-492d-bcb9-e307b86db039,25 Ruskin Drive,New Mexico,87105,United States,US
bee2aec7-48de-49fd-acf1-340e8938d8e7,09976 Eggendart Pass,California,90505,United States,US
dba971db-256a-4c11-9057-99d0ccbc29a7,86 Oriole Lane,North Carolina,27615,United States,US
f5682fc9-7dd2-4c3e-af43-f624cf0ae3a2,57 Hudson Trail,Minnesota,55166,United States,US
66c43624-7884-4ed3-a8a4-6e0fc6d0714c,1 Forest Run Drive,New Jersey,08608,United States,US
ee25e1e0-b70d-4e36-a3ec-3951445e3316,967 Michigan Way,Florida,32092,United States,US
44081548-e11c-43b0-b31f-5b0e3e39353b,63201 Moulton Alley,Colorado,80915,United States,US
ce464aca-76e7-4f96-9fa7-b336e7b9fb9c,865 Beilfuss Court,Michigan,48919,United States,US
324fc4d1-6162-482e-a754-121e80297e7e,5 Grover Center,Minnesota,55551,United States,US
edce068d-29dc-4079-b1c6-c474dbd3e3ea,6 7th Way,Texas,78205,United States,US
0447c3c1-104c-45e9-b891-d71aaea97676,9 Westerfield Point,Minnesota,55407,United States,US
4d68c1ad-1401-45dd-84b8-f1c2a714a1a5,3 Superior Trail,Utah,84110,United States,US
2bf53696-534f-42f6-867a-0d3f93ecbe69,57231 Kensington Plaza,Illinois,60630,United States,US
1c58c136-b4e2-4117-a44c-1b1554d581ff,88 Novick Street,Minnesota,55441,United States,US
4b252656-1ccb-40d6-9363-5b0a115d9694,419 Forest Dale Plaza,California,93750,United States,US
308cecfd-583a-4cdf-8c53-2b52e853559f,27136 John Wall Avenue,West Virginia,25313,United States,US
61f178b7-ba65-465c-826e-091e059a2cb3,9407 Caliangt Trail,Nebraska,68517,United States,US
29ff93ca-8568-4a9e-ab3b-db880e2b8399,4 Autumn Leaf Way,Minnesota,55103,United States,US
030438f0-1d72-451e-a6a6-a117ad06bcb5,88 Mockingbird Junction,California,94137,United States,US
4f94a21a-21b9-4041-be82-c2d224b902ed,82769 Arizona Road,New York,10034,United States,US
78761638-8253-48e8-8991-5d33204c69ef,049 Loomis Crossing,Arizona,85062,United States,US
ac62e2b6-bbd5-42bf-a2f2-f87444e53053,5 Lindbergh Crossing,California,90831,United States,US
f5504f99-67f5-4911-a6a6-fa518f6d69a7,15671 Golf Plaza,Florida,32610,United States,US
dcd03a8d-c371-4333-ac86-e35213849780,05699 Hermina Lane,Iowa,50347,United States,US
8f4a2a0a-c70a-4438-8066-2da24c1b4dd9,90 La Follette Lane,Kansas,66215,United States,US
cb7fe5b3-32a9-433c-95d4-29c7981777bf,78 Randy Street,Texas,77505,United States,US
97a3bc22-6c87-41df-a6d1-d06d5f2cb43f,63589 Village Place,New Mexico,88006,United States,US
e8ca56ab-3ee3-402b-a840-d50b5ba07a10,7673 Jana Court,California,94142,United States,US
4af148d6-5867-415e-87ba-12f20c6252a8,849 Warner Court,California,95108,United States,US
66459856-6d0c-498f-a4ec-050722ab8252,2 Westend Plaza,Mississippi,39296,United States,US
bace7c3c-3d4d-4b97-9fbb-fff4f7c80976,2210 Eastwood Center,Pennsylvania,17110,United States,US
d888a930-1e95-4e67-8440-f5c10d42afb6,9 Lotheville Hill,Louisiana,70607,United States,US
06d2d3c3-bfa7-48f4-ad31-1fa1243aa7da,4 High Crossing Court,Virginia,20189,United States,US
f791b105-08dc-4747-ae3e-bf8e54e8f416,798 Bayside Crossing,Maryland,21239,United States,US
3d015e48-4f23-4abc-97be-d6620d0a961c,20 Pepper Wood Plaza,Maryland,21405,United States,US
33a1606b-bbed-44e3-a731-9ea805972a6f,90172 Anzinger Place,Colorado,80255,United States,US
34b2d04a-52f7-4727-96bd-49b615a14e6b,73052 Mockingbird Place,Georgia,30306,United States,US
d7f4796b-86b3-4640-8e75-b3dec45e8bbb,44418 Maple Junction,Nevada,89519,United States,US
514145d8-da6a-418f-bb40-b25c975842e3,68413 Fordem Street,Indiana,46825,United States,US
4210af18-25af-4ea3-92d9-89382e9a268f,48268 Marquette Point,Pennsylvania,19196,United States,US
68977620-324c-4975-b333-374e75174269,0403 Esker Pass,Florida,34474,United States,US
ec533b8a-fc9a-43b5-a3c9-505738788aef,70 Stone Corner Crossing,Arizona,85005,United States,US
69f3a950-303a-4074-a88a-9cd2a01a3d6d,4202 Packers Park,Texas,79116,United States,US
5f014b46-8bd2-42bc-b21e-96592a2bffd8,8455 Dryden Plaza,Illinois,62756,United States,US
cb24ee23-4c52-4708-9b82-09484d468cb7,06507 Schurz Lane,South Carolina,29416,United States,US
f2d4dd14-6b9a-49a9-9d17-eabc6f1024f3,6660 Delaware Drive,Ohio,44511,United States,US
6d6c6150-1a18-41b4-a35f-0f39e5c3dff2,7 Nancy Junction,California,92127,United States,US
23beedd9-b5bc-4e48-a6d1-ccde952e2b0d,10 Mccormick Street,Texas,76796,United States,US
6b0ac2fe-8553-40b5-a71a-347158c08d11,57673 Reindahl Hill,Missouri,64101,United States,US
94456c82-4721-45b8-afc7-d1b2ca6391ac,5452 Hanover Avenue,Indiana,46239,United States,US
c36ac560-0388-4217-b7e1-4828db627d3f,05339 Dunning Center,Minnesota,55166,United States,US
b7bc9119-b729-4d51-b61c-9b0118fac9b0,6526 Gerald Plaza,California,94273,United States,US
18a9b655-fbd2-479c-9457-c89615da115d,662 Mallard Way,Florida,33462,United States,US
9809022f-5a4e-4532-9cb1-15ecedcc06f0,19059 Northview Place,Illinois,60505,United States,US
67edf808-b862-4a2b-9d31-558e6162c0ee,0500 Boyd Junction,Tennessee,37931,United States,US
f0811764-863b-47d2-bde5-3675c63284b2,621 Thackeray Street,Virginia,22156,United States,US
dfd9951c-27d8-4729-bc63-233e637405af,5 Karstens Hill,New York,14233,United States,US
50d92a8e-3095-4dbb-8a6e-daae26c86f12,987 Redwing Street,California,92555,United States,US
a994717c-f999-41d6-a100-428fd2e7a9dd,83 Mcguire Court,Oklahoma,73114,United States,US
d7e9eeda-063a-4051-aca7-dae6bb186e7c,0 Merrick Pass,Arizona,85271,United States,US
121ca780-021f-4e91-95a1-589db8af18d3,51881 Rieder Lane,California,93386,United States,US
a94a4014-deb4-455a-9574-f9f760c52234,4330 Havey Road,Colorado,80299,United States,US
2a3bee47-56df-4da8-a3a1-db163b0b4c2f,8843 Lyons Way,Florida,33158,United States,US
0a2c83bc-2939-4829-ae5c-c95b07bdaed0,7 Kenwood Lane,Colorado,80328,United States,US
74b3b479-a48b-4b1e-8ac7-b2e538c7f1af,478 Algoma Plaza,Connecticut,06825,United States,US
e7e231f9-a479-49b4-9b93-159ca1980d51,20 Sundown Crossing,Tennessee,37924,United States,US
0f2f5193-f83b-4049-baf3-803c4e875d48,9 Manley Drive,Colorado,80045,United States,US
15166507-c59f-47f4-83e2-235b5e0bc747,697 Kipling Junction,Maryland,20883,United States,US
4096c090-85c5-4cf0-9f4d-55cff70db8c9,4752 American Alley,California,94142,United States,US
76a4cb1f-e251-4aca-aeaf-0345edf953c9,51 Lakeland Parkway,Pennsylvania,17126,United States,US
d6f22bd9-05ad-43c7-a0d7-0077bee7bcf9,2 Lakeland Crossing,Kentucky,40524,United States,US
ee001fd5-b875-4be6-8863-f4ff2e972d89,482 Erie Drive,California,95150,United States,US
0248ebd6-e0d6-465b-b41f-f64f99577847,33 Goodland Place,Illinois,60636,United States,US
ce4baceb-f816-42b5-8a52-08700330eb70,77 Crescent Oaks Plaza,District of Columbia,20268,United States,US
e175790a-bdc0-4141-bd37-76529498d08d,46823 Mccormick Avenue,Florida,33915,United States,US
f588e3e7-8e33-429b-993a-5f98e1d4e0c9,2 Forster Park,Texas,77015,United States,US
783732ad-3eb8-4867-b89a-1e32eca6bf12,9 8th Crossing,Michigan,49444,United States,US
2bcac57b-157a-41b1-8486-153fce3849e2,68 Messerschmidt Center,California,95054,United States,US
00f7ccb8-1323-4ca8-9423-4295d6fecacc,392 Bellgrove Pass,Virginia,23220,United States,US
0124b504-b5a9-46cc-934b-d9e409dd01d6,73 Manley Drive,North Carolina,28314,United States,US
e22fb3b2-57f3-40f8-8da7-c77fdd15188e,0694 Buena Vista Terrace,Pennsylvania,18505,United States,US
f24fb5fe-882d-4b62-8aaf-53850e6f6b3c,07323 Gateway Place,Kentucky,40233,United States,US
eb1b0f18-0aeb-4b5f-bb64-f2c1941689a7,656 Darwin Parkway,Missouri,64144,United States,US
d0c3461f-e734-4d85-a716-bf8e5d6cf33c,3021 Hudson Hill,Pennsylvania,19191,United States,US
d9e8c1d4-9d49-462b-a366-1f3c1438b6ea,52829 Messerschmidt Road,Pennsylvania,17622,United States,US
b5636c01-8999-47d1-8343-437b2ca15e53,2 Mariners Cove Plaza,Washington,98133,United States,US
eac39cbd-4527-4e66-add7-e31387acfe27,58 Pepper Wood Place,Florida,33013,United States,US
6784e9c3-7d15-4c76-b265-7279f22f395a,0830 Heath Crossing,Texas,88569,United States,US
a06da1df-ede4-40de-a35f-92f085dc3899,08 Crescent Oaks Avenue,Tennessee,38104,United States,US
948a22bb-6cfe-4e29-b7e5-57df8a53f9bb,662 Darwin Drive,Wisconsin,54915,United States,US
1dfd6f12-e2ae-4075-9573-c7fbf972ad2d,29 Orin Trail,California,95219,United States,US
a4b17208-a311-4c6a-8df3-554514b31e16,5 Mendota Place,West Virginia,25356,United States,US
d1602660-78e5-4f91-846d-330cfd6962a8,04737 Eastlawn Crossing,Wisconsin,53263,United States,US
14ac62dc-4e07-4a50-a842-8c68b81832c1,0363 Sachs Parkway,Louisiana,70174,United States,US
881abd66-0273-478d-991a-4e42790845b2,39 Reindahl Road,Kansas,66611,United States,US
0423f6c7-7e4b-4b52-9f93-f9e84923b00e,7359 Division Court,Colorado,80279,United States,US
ce519a01-b6b8-4c69-bdd6-5c5210e2a16a,62 Starling Avenue,South Dakota,57188,United States,US
db1269f5-3581-4759-8213-4d9a165ea078,945 Macpherson Court,Florida,32835,United States,US
e7a6bafe-61ea-4751-8a07-7fa5a6a5bd4f,340 Farmco Avenue,California,93005,United States,US
0380069e-0f23-4a30-a5cc-8dded390352b,283 Maryland Trail,Arizona,85067,United States,US
301dba92-967b-4edf-9017-b1d123d72202,1 Parkside Drive,New York,10705,United States,US
106f251b-131e-4587-92a2-ba70d7863ca8,23 Prairie Rose Avenue,Texas,78726,United States,US
e389bc9a-c2ee-4d27-addd-033799ef581b,2 Independence Center,Maryland,20918,United States,US
60f2a294-75ab-4856-b10c-5c42f9f1a8a0,0900 Pierstorff Street,Florida,33915,United States,US
505be94b-eb95-45c8-a0cf-207dc96553a1,3855 Clarendon Drive,South Carolina,29319,United States,US
25322147-e991-46fc-a818-488043bb7531,63 Nancy Parkway,Indiana,46247,United States,US
dba1877e-e32f-435d-b85e-2b6f21518c27,7 Corry Junction,New Jersey,07544,United States,US
1297014d-226c-4bd0-80ef-e03b847cc98b,7 Blaine Point,Minnesota,55166,United States,US
9edd490f-e134-4997-9ee3-c657906028e5,45 Oriole Junction,Virginia,23663,United States,US
b2cc7720-e29f-4e85-8a1b-184072dbdeb9,34420 Jay Pass,Pennsylvania,15279,United States,US
7af63d30-1b1d-4155-8cf4-d7522e344b67,17357 Summerview Avenue,Massachusetts,01114,United States,US
23c831e1-f454-4e29-9114-227108eb02f7,51 Packers Road,Missouri,64142,United States,US
462702e0-7a06-47c0-8114-f64e79698a2d,63690 Texas Parkway,Virginia,22119,United States,US
bc88c557-e87a-45f1-b550-82e76d5631b4,3601 Erie Street,California,95298,United States,US
